{"type":"FeatureCollection","features":[{"type":"Feature","properties":{"name":"CN/Metrolinx Guelph Subdivision Kitchener–Guelph","route":"guelph","length_m":22066,"source":"OpenStreetMap"},"geometry":{"type":"LineString","coordinates":[[-80.4941317,43.4554229],[-80.49386022857142,43.455513814285716],[-80.49358875714286,43.45560472857143],[-80.49331728571428,43.455695642857144],[-80.49304581428571,43.45578655714286],[-80.49277434285715,43.45587747142857],[-80.49250287142857,43.455968385714286],[-80.49223140000001,43.4560593],[-80.49195992857143,43.456150214285714],[-80.49168845714286,43.45624112857143],[-80.4914169857143,43.45633204285714],[-80.49114551428572,43.456422957142856],[-80.49087404285714,43.45651387142857],[-80.49060257142858,43.45660478571428],[-80.4903311,43.4566957],[-80.49005583333334,43.456787399999996],[-80.48978056666667,43.456879099999995],[-80.4895053,43.45697079999999],[-80.48923003333334,43.4570625],[-80.48895476666667,43.4571542],[-80.4886795,43.4572459],[-80.48842535,43.457330549999995],[-80.48817120000001,43.4574152],[-80.48791705000001,43.457499850000005],[-80.4876629,43.4575845],[-80.48739021666667,43.457675583333334],[-80.48711753333333,43.45776666666667],[-80.48684485000001,43.45785775],[-80.48657216666668,43.45794883333333],[-80.48629948333334,43.45803991666667],[-80.4860268,43.458131],[-80.4859364,43.4581604],[-80.4857186,43.45823343333333],[-80.4855008,43.45830646666666],[-80.485283,43.4583795],[-80.4850187,43.45846648888889],[-80.4847544,43.45855347777778],[-80.4844901,43.458640466666665],[-80.4842258,43.458727455555554],[-80.48396149999999,43.45881444444444],[-80.4836972,43.45890143333333],[-80.4834329,43.45898842222222],[-80.4831686,43.45907541111111],[-80.4829043,43.4591624],[-80.4827742,43.4592058],[-80.4826442,43.459249],[-80.48239343333333,43.459332266666664],[-80.48214266666666,43.459415533333335],[-80.4818919,43.4594988],[-80.481615292,43.459590628],[-80.481338684,43.459682455999996],[-80.481062076,43.459774284],[-80.480785468,43.459866112],[-80.48050886,43.45995794],[-80.480232252,43.460049768],[-80.479955644,43.460141596],[-80.479679036,43.460233424],[-80.479402428,43.460325252],[-80.47912582,43.46041708],[-80.478849212,43.460508908],[-80.478572604,43.460600736],[-80.478295996,43.460692564],[-80.47801938799999,43.460784392],[-80.47774278,43.46087622],[-80.47746617199999,43.460968048000005],[-80.477189564,43.461059876],[-80.47691295599999,43.461151704],[-80.476636348,43.461243532000005],[-80.47635973999999,43.46133536],[-80.476083132,43.461427188],[-80.47580652399999,43.461519016000004],[-80.475529916,43.461610844000006],[-80.47525330799999,43.461702672],[-80.4749767,43.4617945],[-80.47470763333334,43.46188385833334],[-80.47443856666666,43.46197321666667],[-80.4741695,43.462062575000004],[-80.47390043333333,43.46215193333334],[-80.47363136666667,43.46224129166667],[-80.47336229999999,43.46233065],[-80.47309323333333,43.46242000833333],[-80.47282416666667,43.462509366666666],[-80.4725551,43.462598725],[-80.47228603333333,43.46268808333333],[-80.47201696666666,43.46277744166667],[-80.4717479,43.4628668],[-80.47150398,43.4629488],[-80.47126005999999,43.4630308],[-80.47101614,43.463112800000005],[-80.47077222,43.463194800000004],[-80.4705283,43.4632768],[-80.4702662909091,43.46336359090909],[-80.47000428181818,43.463450381818184],[-80.46974227272727,43.46353717272727],[-80.46948026363637,43.463623963636365],[-80.46921825454545,43.46371075454545],[-80.46895624545455,43.46379754545455],[-80.46869423636363,43.463884336363634],[-80.46843222727273,43.46397112727273],[-80.46817021818183,43.464057918181815],[-80.46790820909091,43.46414470909091],[-80.4676462,43.4642315],[-80.46738640833334,43.46431798333333],[-80.46712661666668,43.464404466666664],[-80.46686682500001,43.46449095],[-80.46660703333333,43.46457743333333],[-80.46634724166667,43.464663916666666],[-80.46608745,43.4647504],[-80.46582765833334,43.464836883333334],[-80.46556786666667,43.46492336666667],[-80.465308075,43.46500985],[-80.46504828333333,43.465096333333335],[-80.46478849166667,43.46518281666667],[-80.4645287,43.4652693],[-80.46425972666667,43.4653591],[-80.46399075333333,43.465448900000005],[-80.46372178,43.4655387],[-80.46345280666667,43.4656285],[-80.46318383333333,43.4657183],[-80.46291486,43.465808100000004],[-80.46264588666666,43.4658979],[-80.46237691333334,43.4659877],[-80.46210794000001,43.4660775],[-80.46183896666668,43.4661673],[-80.46156999333334,43.4662571],[-80.46130102000001,43.4663469],[-80.46103204666667,43.466436699999996],[-80.46076307333334,43.4665265],[-80.4604941,43.4666163],[-80.46021325000001,43.46670973928571],[-80.4599324,43.466803178571425],[-80.45965155,43.46689661785714],[-80.45937070000001,43.46699005714286],[-80.45908985,43.46708349642857],[-80.458809,43.467176935714285],[-80.45852815,43.467270375],[-80.4582473,43.46736381428571],[-80.45796645,43.467457253571425],[-80.4576856,43.46755069285714],[-80.45740475,43.46764413214286],[-80.4571239,43.46773757142857],[-80.45684305,43.467831010714285],[-80.45656220000001,43.46792445],[-80.45628135,43.46801788928571],[-80.4560005,43.468111328571425],[-80.45571965,43.46820476785714],[-80.4554388,43.46829820714286],[-80.45515795,43.46839164642857],[-80.4548771,43.468485085714285],[-80.45459625,43.468578525],[-80.4543154,43.46867196428571],[-80.45403455,43.468765403571425],[-80.4537537,43.46885884285714],[-80.45347285,43.46895228214286],[-80.453192,43.46904572142857],[-80.45291114999999,43.469139160714285],[-80.4526303,43.4692326],[-80.45237656249999,43.4693171625],[-80.452122825,43.469401725],[-80.4518690875,43.4694862875],[-80.45161535,43.46957085],[-80.4513616125,43.4696554125],[-80.45110787499999,43.469739975],[-80.4508541375,43.4698245375],[-80.4506004,43.4699091],[-80.45032357741935,43.470001216129035],[-80.45004675483871,43.47009333225807],[-80.44976993225806,43.4701854483871],[-80.44949310967742,43.47027756451613],[-80.44921628709677,43.47036968064516],[-80.44893946451613,43.470461796774195],[-80.44866264193548,43.47055391290323],[-80.44838581935484,43.47064602903226],[-80.4481089967742,43.47073814516129],[-80.44783217419355,43.470830261290324],[-80.4475553516129,43.470922377419356],[-80.44727852903226,43.47101449354839],[-80.44700170645162,43.47110660967742],[-80.44672488387097,43.47119872580645],[-80.44644806129033,43.471290841935485],[-80.44617123870967,43.47138295806452],[-80.44589441612902,43.47147507419355],[-80.44561759354838,43.47156719032258],[-80.44534077096773,43.47165930645161],[-80.44506394838709,43.471751422580645],[-80.44478712580644,43.47184353870968],[-80.4445103032258,43.47193565483871],[-80.44423348064515,43.47202777096774],[-80.44395665806451,43.472119887096774],[-80.44367983548386,43.472212003225806],[-80.44340301290322,43.47230411935484],[-80.44312619032257,43.47239623548387],[-80.44284936774193,43.4724883516129],[-80.44257254516128,43.472580467741935],[-80.44229572258064,43.47267258387097],[-80.4420189,43.4727647],[-80.4419319,43.4727936],[-80.4417917,43.4728434],[-80.4417087,43.4728708],[-80.44143136285714,43.472962300000006],[-80.4411540257143,43.4730538],[-80.44087668857144,43.473145300000006],[-80.44059935142857,43.4732368],[-80.44032201428573,43.473328300000006],[-80.44004467714286,43.4734198],[-80.43976734,43.473511300000006],[-80.43949000285716,43.4736028],[-80.4392126657143,43.473694300000005],[-80.43893532857143,43.4737858],[-80.43865799142857,43.473877300000005],[-80.43838065428572,43.4739688],[-80.43810331714286,43.474060300000005],[-80.43782598,43.4741518],[-80.43754864285715,43.474243300000005],[-80.43727130571429,43.4743348],[-80.43699396857143,43.474426300000005],[-80.43671663142858,43.4745178],[-80.43643929428572,43.474609300000004],[-80.43616195714286,43.4747008],[-80.43588462000001,43.474792300000004],[-80.43560728285715,43.4748838],[-80.43532994571429,43.474975300000004],[-80.43505260857144,43.4750668],[-80.43477527142858,43.475158300000004],[-80.43449793428572,43.4752498],[-80.43422059714285,43.475341300000004],[-80.43394326,43.4754328],[-80.43366592285714,43.475524300000004],[-80.43338858571428,43.4756158],[-80.43311124857144,43.4757073],[-80.43283391142857,43.4757988],[-80.43255657428571,43.4758903],[-80.43227923714286,43.4759818],[-80.4320019,43.4760733],[-80.43173126666667,43.47614886666667],[-80.43146063333333,43.476224433333336],[-80.43119,43.4763],[-80.43091936666667,43.47637556666667],[-80.43064873333333,43.476451133333335],[-80.4303781,43.4765267],[-80.43011375555555,43.47658915555556],[-80.4298494111111,43.47665161111111],[-80.42958506666666,43.476714066666666],[-80.42932072222222,43.476776522222224],[-80.42905637777778,43.476838977777774],[-80.42879203333334,43.47690143333333],[-80.42852768888889,43.47696388888889],[-80.42826334444445,43.47702634444444],[-80.427999,43.4770888],[-80.4277534,43.47714275],[-80.4275078,43.47719669999999],[-80.4272622,43.477250649999995],[-80.4270166,43.4773046],[-80.4269127,43.4773274],[-80.42662145384615,43.47739302307692],[-80.4263302076923,43.47745864615385],[-80.42603896153847,43.47752426923077],[-80.42574771538462,43.47758989230769],[-80.42545646923077,43.47765551538462],[-80.42516522307692,43.47772113846154],[-80.42487397692308,43.47778676153846],[-80.42458273076923,43.47785238461538],[-80.42429148461538,43.47791800769231],[-80.42400023846153,43.47798363076923],[-80.4237089923077,43.47804925384615],[-80.42341774615385,43.47811487692308],[-80.4231265,43.4781805],[-80.4228794,43.47823795],[-80.4226323,43.4782954],[-80.422337775,43.478360325],[-80.42204325,43.47842525],[-80.421748725,43.478490175000005],[-80.4214542,43.4785551],[-80.42116882857142,43.47861835714286],[-80.42088345714285,43.47868161428571],[-80.42059808571429,43.478744871428574],[-80.42031271428571,43.47880812857143],[-80.42002734285714,43.478871385714285],[-80.41974197142856,43.47893464285714],[-80.4194566,43.4789979],[-80.41917122857143,43.47906115714286],[-80.41888585714285,43.479124414285714],[-80.41860048571428,43.47918767142857],[-80.41831511428572,43.47925092857143],[-80.41802974285714,43.47931418571429],[-80.41774437142857,43.47937744285714],[-80.417459,43.4794407],[-80.41717362857143,43.47950395714286],[-80.41688825714286,43.479567214285716],[-80.41660288571428,43.47963047142857],[-80.41631751428571,43.47969372857143],[-80.41603214285715,43.47975698571429],[-80.41574677142857,43.479820242857144],[-80.4154614,43.4798835],[-80.4153913,43.4798989],[-80.4152946,43.4799206],[-80.41500092187499,43.479986646875],[-80.41470724375,43.48005269375],[-80.414413565625,43.480118740625],[-80.4141198875,43.4801847875],[-80.413826209375,43.480250834375],[-80.41353253125,43.48031688125],[-80.413238853125,43.480382928125],[-80.412945175,43.480448975],[-80.412651496875,43.480515021875],[-80.41235781875,43.48058106875],[-80.41206414062499,43.480647115625],[-80.4117704625,43.4807131625],[-80.411476784375,43.480779209375],[-80.41118310625,43.48084525625],[-80.410889428125,43.480911303125],[-80.41059575,43.48097735],[-80.410302071875,43.481043396875],[-80.41000839375,43.48110944375],[-80.409714715625,43.481175490625],[-80.4094210375,43.4812415375],[-80.409127359375,43.481307584375],[-80.40883368125,43.48137363125],[-80.408540003125,43.481439678125],[-80.408246325,43.481505725],[-80.407952646875,43.481571771875],[-80.40765896875,43.48163781875],[-80.407365290625,43.481703865625],[-80.4070716125,43.4817699125],[-80.406777934375,43.481835959375],[-80.40648425625,43.48190200625],[-80.406190578125,43.481968053125],[-80.4058969,43.4820341],[-80.405676975,43.482089],[-80.40545705,43.4821439],[-80.405237125,43.4821988],[-80.4050172,43.4822537],[-80.40478236666667,43.48229906666667],[-80.40454753333334,43.48234443333333],[-80.4043127,43.4823898],[-80.40402387142858,43.482469557142856],[-80.40373504285715,43.48254931428571],[-80.40344621428572,43.48262907142857],[-80.40315738571428,43.48270882857143],[-80.40286855714285,43.48278858571429],[-80.40257972857142,43.482868342857145],[-80.4022909,43.4829481],[-80.40202937777778,43.48303288888889],[-80.40176785555555,43.48311767777778],[-80.40150633333333,43.48320246666667],[-80.40124481111111,43.48328725555556],[-80.40098328888888,43.483372044444444],[-80.40072176666666,43.483456833333335],[-80.40046024444445,43.483541622222226],[-80.40019872222221,43.48362641111111],[-80.3999372,43.4837112],[-80.39967267,43.48381026],[-80.39940813999999,43.48390932],[-80.39914361,43.484008380000006],[-80.39887908,43.48410744],[-80.39861454999999,43.4842065],[-80.39835002,43.48430556],[-80.39808549,43.48440462000001],[-80.39782096,43.48450368],[-80.39755643,43.48460274],[-80.3972919,43.4847018],[-80.39703205384615,43.48480218461539],[-80.39677220769231,43.48490256923077],[-80.39651236153846,43.485002953846156],[-80.39625251538462,43.48510333846154],[-80.39599266923076,43.48520372307692],[-80.39573282307693,43.48530410769231],[-80.39547297692307,43.485404492307694],[-80.39521313076924,43.48550487692308],[-80.39495328461538,43.48560526153846],[-80.39469343846154,43.485705646153846],[-80.39443359230769,43.48580603076923],[-80.39417374615385,43.48590641538461],[-80.3939139,43.4860068],[-80.39364859333334,43.48611166],[-80.39338328666666,43.48621652],[-80.39311798,43.48632138],[-80.39285267333334,43.48642624],[-80.39258736666666,43.4865311],[-80.39232206,43.48663596],[-80.39205675333334,43.48674082],[-80.39179144666666,43.486845679999995],[-80.39152614,43.486950539999995],[-80.39126083333333,43.487055399999996],[-80.39099552666666,43.487160259999996],[-80.39073022,43.487265119999996],[-80.39046491333333,43.48736998],[-80.39019960666666,43.48747484],[-80.3899343,43.4875797],[-80.389666845,43.487683184999995],[-80.38939939,43.48778667],[-80.389131935,43.487890154999995],[-80.38886448,43.48799364],[-80.388597025,43.488097124999996],[-80.38832957,43.48820061],[-80.388062115,43.488304095],[-80.38779466,43.48840758],[-80.387527205,43.488511065],[-80.38725975,43.488614549999994],[-80.386992295,43.488718035],[-80.38672484,43.488821519999995],[-80.386457385,43.488925005],[-80.38618993,43.489028489999995],[-80.385922475,43.489131975],[-80.38565502,43.489235459999996],[-80.385387565,43.489338945],[-80.38512011,43.48944243],[-80.384852655,43.489545915],[-80.3845852,43.4896494],[-80.38431774499999,43.489752884999994],[-80.38405028999999,43.48985637],[-80.38378283499999,43.489959854999995],[-80.38351537999999,43.49006334],[-80.38324792499999,43.490166824999996],[-80.38298046999999,43.49027031],[-80.382713015,43.490373795],[-80.38244556,43.49047728],[-80.382178105,43.490580765],[-80.38191065,43.49068425],[-80.381643195,43.490787735],[-80.38137574,43.490891219999995],[-80.381108285,43.490994705],[-80.38084083,43.491098189999995],[-80.380573375,43.491201675],[-80.38030592,43.491305159999996],[-80.380038465,43.491408645],[-80.37977101,43.49151213],[-80.379503555,43.491615615],[-80.3792361,43.4917191],[-80.37899585714285,43.49181335714285],[-80.37875561428571,43.491907614285715],[-80.37851537142856,43.49200187142857],[-80.37827512857143,43.492096128571426],[-80.37803488571429,43.49219038571428],[-80.37779464285714,43.49228464285714],[-80.3775544,43.4923789],[-80.37740425,43.492437499999994],[-80.3772541,43.4924961],[-80.37699521111111,43.49259715555555],[-80.37673632222223,43.49269821111111],[-80.37647743333333,43.492799266666665],[-80.37621854444444,43.49290032222222],[-80.37595965555556,43.49300137777778],[-80.37570076666667,43.493102433333334],[-80.37544187777777,43.49320348888889],[-80.3751829888889,43.49330454444445],[-80.3749241,43.4934056],[-80.3748,43.4934522],[-80.3746794,43.4934976],[-80.37442300000001,43.493595892857144],[-80.37416660000001,43.49369418571428],[-80.3739102,43.49379247857143],[-80.3736538,43.49389077142857],[-80.3733974,43.493989064285714],[-80.373141,43.49408735714285],[-80.37288459999999,43.49418565],[-80.3726282,43.494283942857145],[-80.3723718,43.49438223571428],[-80.3721154,43.49448052857143],[-80.371859,43.49457882142857],[-80.37160259999999,43.494677114285714],[-80.37134619999999,43.49477540714285],[-80.3710898,43.4948737],[-80.37083120526314,43.494975378947366],[-80.37057261052631,43.49507705789474],[-80.37031401578946,43.49517873684211],[-80.37005542105263,43.49528041578947],[-80.36979682631578,43.49538209473684],[-80.36953823157894,43.495483773684214],[-80.3692796368421,43.49558545263158],[-80.36902104210526,43.49568713157895],[-80.36876244736841,43.495788810526314],[-80.36850385263158,43.49589048947369],[-80.36824525789473,43.495992168421054],[-80.3679866631579,43.49609384736842],[-80.36772806842104,43.49619552631579],[-80.36746947368421,43.49629720526316],[-80.36721087894736,43.49639888421053],[-80.36695228421053,43.496500563157895],[-80.36669368947368,43.49660224210526],[-80.36643509473684,43.496703921052635],[-80.3661765,43.4968056],[-80.36591373333333,43.496907033333336],[-80.36565096666666,43.49700846666667],[-80.3653882,43.4971099],[-80.36512543333333,43.49721133333333],[-80.36486266666667,43.49731276666667],[-80.3645999,43.4974142],[-80.36433713333334,43.497515633333336],[-80.36407436666667,43.49761706666666],[-80.3638116,43.4977185],[-80.36354883333334,43.49781993333333],[-80.36328606666666,43.49792136666667],[-80.3630233,43.4980228],[-80.36276053333333,43.498124233333336],[-80.36249776666666,43.49822566666666],[-80.362235,43.4983271],[-80.36197223333333,43.49842853333333],[-80.36170946666667,43.498529966666666],[-80.3614467,43.4986314],[-80.36118393333334,43.49873283333333],[-80.36092116666667,43.49883426666666],[-80.3606584,43.4989357],[-80.36039760909091,43.4990367],[-80.36013681818183,43.4991377],[-80.35987602727273,43.4992387],[-80.35961523636364,43.4993397],[-80.35935444545454,43.4994407],[-80.35909365454546,43.499541699999995],[-80.35883286363637,43.499642699999995],[-80.35857207272727,43.499743699999996],[-80.35831128181817,43.4998447],[-80.3580504909091,43.4999457],[-80.3577897,43.5000467],[-80.35752135,43.50015105],[-80.357253,43.5002554],[-80.35698465,43.50035975],[-80.3567163,43.5004641],[-80.35644795,43.500568449999996],[-80.3561796,43.5006728],[-80.35591124999999,43.50077715],[-80.35564289999999,43.5008815],[-80.35537455,43.50098585],[-80.3551062,43.5010902],[-80.35483785,43.50119455],[-80.3545695,43.5012989],[-80.35430115,43.501403249999996],[-80.3540328,43.5015076],[-80.35376445,43.50161195],[-80.3534961,43.5017163],[-80.35322775,43.50182065],[-80.3529594,43.501925],[-80.35269105,43.50202935],[-80.35242269999999,43.5021337],[-80.35215434999999,43.50223805],[-80.351886,43.502342399999996],[-80.35161765,43.50244675],[-80.3513493,43.5025511],[-80.35108095,43.50265545],[-80.3508126,43.5027598],[-80.35054425,43.50286415],[-80.3502759,43.5029685],[-80.35000755,43.50307285],[-80.3497392,43.5031772],[-80.34947085,43.50328155],[-80.3492025,43.5033859],[-80.34893414999999,43.50349025],[-80.34866579999999,43.5035946],[-80.34839745,43.50369895],[-80.3481291,43.5038033],[-80.34786075,43.50390765],[-80.3475924,43.504012],[-80.34732405,43.504116350000004],[-80.3470557,43.5042207],[-80.34678735,43.50432505],[-80.346519,43.5044294],[-80.34625065,43.50453375],[-80.3459823,43.5046381],[-80.34571395,43.50474245],[-80.34544559999999,43.5048468],[-80.34517724999999,43.504951150000004],[-80.3449089,43.5050555],[-80.34464055,43.50515985],[-80.3443722,43.5052642],[-80.34410385,43.50536855],[-80.3438355,43.5054729],[-80.3436428,43.5055411],[-80.34337188947369,43.505645484210525],[-80.34310097894736,43.505749868421056],[-80.34283006842105,43.50585425263158],[-80.34255915789474,43.50595863684211],[-80.34228824736842,43.50606302105263],[-80.3420173368421,43.50616740526316],[-80.34174642631578,43.506271789473686],[-80.34147551578947,43.50637617368421],[-80.34120460526316,43.50648055789474],[-80.34093369473683,43.50658494210526],[-80.34066278421052,43.506689326315794],[-80.34039187368421,43.50679371052632],[-80.34012096315789,43.50689809473684],[-80.33985005263158,43.50700247894737],[-80.33957914210525,43.507106863157894],[-80.33930823157894,43.507211247368424],[-80.33903732105263,43.50731563157895],[-80.3387664105263,43.50742001578948],[-80.3384955,43.5075244],[-80.3382994,43.5076136],[-80.33802992631578,43.507717836842104],[-80.33776045263157,43.50782207368421],[-80.33749097894737,43.507926310526315],[-80.33722150526316,43.50803054736842],[-80.33695203157895,43.508134784210526],[-80.33668255789473,43.50823902105263],[-80.33641308421052,43.50834325789474],[-80.33614361052632,43.50844749473684],[-80.33587413684211,43.50855173157895],[-80.3356046631579,43.50865596842105],[-80.33533518947368,43.50876020526316],[-80.33506571578948,43.50886444210526],[-80.33479624210527,43.50896867894737],[-80.33452676842106,43.509072915789474],[-80.33425729473684,43.50917715263158],[-80.33398782105263,43.509281389473685],[-80.33371834736843,43.50938562631579],[-80.33344887368422,43.509489863157896],[-80.3331794,43.5095941],[-80.33292035000001,43.5096943],[-80.33266130000001,43.5097945],[-80.33240225,43.509894700000004],[-80.3321432,43.5099949],[-80.33188415000001,43.5100951],[-80.33162510000001,43.5101953],[-80.33136605,43.510295500000005],[-80.331107,43.510395700000004],[-80.33084795,43.5104959],[-80.33058890000001,43.5105961],[-80.33032985000001,43.5106963],[-80.3300708,43.510796500000005],[-80.32981175,43.5108967],[-80.32955270000001,43.5109969],[-80.32929365000001,43.5110971],[-80.3290346,43.511197300000006],[-80.32877555,43.511297500000005],[-80.3285165,43.5113977],[-80.32825007567568,43.51150074594595],[-80.32798365135136,43.51160379189189],[-80.32771722702704,43.51170683783784],[-80.32745080270271,43.51180988378378],[-80.32718437837838,43.51191292972973],[-80.32691795405405,43.51201597567568],[-80.32665152972973,43.51211902162162],[-80.32638510540541,43.51222206756757],[-80.32611868108108,43.51232511351352],[-80.32585225675676,43.51242815945946],[-80.32558583243244,43.51253120540541],[-80.32531940810811,43.51263425135135],[-80.32505298378379,43.5127372972973],[-80.32478655945945,43.51284034324325],[-80.32452013513513,43.51294338918919],[-80.32425371081081,43.51304643513514],[-80.32398728648649,43.513149481081086],[-80.32372086216216,43.51325252702703],[-80.32345443783784,43.513355572972976],[-80.32318801351352,43.51345861891892],[-80.32292158918919,43.513561664864866],[-80.32265516486487,43.513664710810815],[-80.32238874054055,43.51376775675676],[-80.32212231621621,43.513870802702705],[-80.32185589189189,43.513973848648654],[-80.32158946756756,43.514076894594595],[-80.32132304324324,43.514179940540544],[-80.32105661891892,43.514282986486485],[-80.3207901945946,43.514386032432434],[-80.32052377027027,43.51448907837838],[-80.32025734594595,43.514592124324324],[-80.31999092162162,43.51469517027027],[-80.31972449729729,43.51479821621622],[-80.31945807297296,43.51490126216216],[-80.31919164864864,43.51500430810811],[-80.31892522432432,43.51510735405405],[-80.3186588,43.5152104],[-80.31838619874999,43.51531611125],[-80.31811359749999,43.5154218225],[-80.31784099625,43.51552753375],[-80.317568395,43.515633245000004],[-80.31729579374999,43.515738956250004],[-80.31702319249999,43.5158446675],[-80.31675059125,43.51595037875],[-80.31647799,43.51605609],[-80.31620538874999,43.51616180125],[-80.31593278749999,43.5162675125],[-80.31566018625,43.51637322375],[-80.315387585,43.516478935],[-80.31511498375,43.51658464625],[-80.31484238249999,43.5166903575],[-80.31456978125,43.51679606875],[-80.31429718,43.51690178],[-80.31402457875,43.51700749125],[-80.31375197749999,43.5171132025],[-80.31347937625,43.51721891375],[-80.313206775,43.517324625],[-80.31293417375,43.51743033625],[-80.31266157249999,43.5175360475],[-80.31238897124999,43.51764175875],[-80.31211637,43.51774747],[-80.31184376875,43.517853181250004],[-80.31157116749999,43.5179588925],[-80.31129856624999,43.51806460375],[-80.311025965,43.518170315],[-80.31075336375,43.51827602625],[-80.31048076249999,43.5183817375],[-80.31020816124999,43.51848744875],[-80.30993556,43.51859316],[-80.30966295875,43.51869887125],[-80.30939035749999,43.5188045825],[-80.30911775624999,43.51891029375],[-80.308845155,43.519016005],[-80.30857255375,43.51912171625],[-80.3082999525,43.5192274275],[-80.30802735124999,43.51933313875],[-80.30775474999999,43.51943885],[-80.30748214875,43.51954456125],[-80.3072095475,43.5196502725],[-80.30693694624999,43.51975598375],[-80.30666434499999,43.519861695],[-80.30639174375,43.519967406250004],[-80.3061191425,43.5200731175],[-80.30584654124999,43.52017882875],[-80.30557393999999,43.52028454],[-80.30530133875,43.52039025125],[-80.3050287375,43.5204959625],[-80.30475613624999,43.52060167375],[-80.30448353499999,43.520707385],[-80.30421093375,43.52081309625],[-80.3039383325,43.5209188075],[-80.30366573124999,43.521024518749996],[-80.30339312999999,43.52113023],[-80.30312052875,43.52123594125],[-80.3028479275,43.5213416525],[-80.30257532625,43.52144736375],[-80.30230272499999,43.521553075],[-80.30203012374999,43.52165878625],[-80.3017575225,43.5217644975],[-80.30148492125,43.52187020875],[-80.30121231999999,43.52197592],[-80.30093971874999,43.52208163125],[-80.3006671175,43.5221873425],[-80.30039451625,43.52229305375],[-80.30012191499999,43.522398765],[-80.29984931374999,43.52250447625],[-80.2995767125,43.5226101875],[-80.29930411125,43.52271589875],[-80.29903150999999,43.52282161],[-80.29875890874999,43.52292732125],[-80.2984863075,43.5230330325],[-80.29821370625,43.523138743749996],[-80.29794110499999,43.523244455],[-80.29766850374999,43.52335016625],[-80.2973959025,43.5234558775],[-80.29712330125,43.52356158875],[-80.2968507,43.5236673],[-80.29659546666666,43.52376628333333],[-80.29634023333332,43.52386526666667],[-80.296085,43.52396425],[-80.29582976666667,43.52406323333333],[-80.29557453333334,43.52416221666667],[-80.2953193,43.5242612],[-80.29509666666667,43.524347533333334],[-80.29487403333334,43.52443386666666],[-80.2946514,43.5245202],[-80.29439068333333,43.52462116111111],[-80.29412996666667,43.52472212222222],[-80.29386925,43.52482308333333],[-80.29360853333334,43.52492404444444],[-80.29334781666667,43.525025005555555],[-80.29308710000001,43.525125966666664],[-80.29282638333333,43.52522692777777],[-80.29256566666668,43.52532788888889],[-80.29230495,43.52542885],[-80.29204423333333,43.525529811111106],[-80.29178351666667,43.52563077222222],[-80.2915228,43.52573173333333],[-80.29126208333334,43.52583269444444],[-80.29100136666666,43.525933655555555],[-80.29074065,43.526034616666664],[-80.29047993333333,43.52613557777777],[-80.29021921666667,43.52623653888889],[-80.2899585,43.5263375],[-80.28977760000001,43.52640835],[-80.2895967,43.5264792],[-80.2893336,43.5265823],[-80.2890642346154,43.526685265384614],[-80.28879486923077,43.526788230769235],[-80.28852550384616,43.52689119615385],[-80.28825613846155,43.52699416153846],[-80.28798677307692,43.52709712692308],[-80.28771740769231,43.527200092307694],[-80.2874480423077,43.52730305769231],[-80.28717867692308,43.52740602307692],[-80.28690931153847,43.52750898846154],[-80.28663994615385,43.527611953846154],[-80.28637058076923,43.52771491923077],[-80.28610121538462,43.52781788461539],[-80.28583185000001,43.52792085],[-80.28556248461538,43.528023815384614],[-80.28529311923077,43.528126780769234],[-80.28502375384616,43.52822974615385],[-80.28475438846154,43.52833271153846],[-80.28448502307693,43.52843567692308],[-80.28421565769231,43.528538642307694],[-80.28394629230769,43.52864160769231],[-80.28367692692308,43.52874457307692],[-80.28340756153847,43.52884753846154],[-80.28313819615384,43.528950503846154],[-80.28286883076923,43.52905346923077],[-80.28259946538462,43.52915643461539],[-80.2823301,43.5292594],[-80.28206073461538,43.529362365384614],[-80.28179136923077,43.529465330769234],[-80.28152200384616,43.52956829615385],[-80.28125263846154,43.52967126153846],[-80.28098327307693,43.52977422692308],[-80.28071390769232,43.529877192307694],[-80.28044454230769,43.52998015769231],[-80.28017517692308,43.53008312307692],[-80.27990581153847,43.53018608846154],[-80.27963644615384,43.530289053846154],[-80.27936708076923,43.53039201923077],[-80.27909771538462,43.53049498461539],[-80.27882835,43.53059795],[-80.27855898461539,43.530700915384614],[-80.27828961923078,43.530803880769234],[-80.27802025384615,43.53090684615385],[-80.27775088846154,43.53100981153846],[-80.27748152307693,43.53111277692308],[-80.2772121576923,43.531215742307694],[-80.2769427923077,43.53131870769231],[-80.27667342692308,43.53142167307692],[-80.27640406153846,43.53152463846154],[-80.27613469615385,43.531627603846154],[-80.27586533076924,43.53173056923077],[-80.27559596538461,43.53183353461539],[-80.2753266,43.5319365],[-80.27507496666666,43.53202196666667],[-80.27482333333333,43.53210743333333],[-80.2745717,43.5321929],[-80.27437583333334,43.5322572],[-80.27417996666667,43.5323215],[-80.2739841,43.5323858],[-80.2737626,43.532458175],[-80.2735411,43.532530550000004],[-80.27331960000001,43.532602925],[-80.2730981,43.5326753],[-80.27282762499999,43.532762],[-80.27255715,43.5328487],[-80.272286675,43.5329354],[-80.2720162,43.5330221],[-80.27174572499999,43.5331088],[-80.27147525,43.5331955],[-80.271204775,43.5332822],[-80.2709343,43.5333689],[-80.27076195,43.53342535],[-80.2705896,43.5334818],[-80.2703152,43.533569987499995],[-80.27004079999999,43.533658175],[-80.2697664,43.5337463625],[-80.269492,43.533834549999995],[-80.26921759999999,43.5339227375],[-80.2689432,43.534010925],[-80.2686688,43.5340991125],[-80.2683944,43.5341873],[-80.26812,43.5342754875],[-80.2678456,43.534363675],[-80.2675712,43.5344518625],[-80.2672968,43.534540050000004],[-80.2670224,43.5346282375],[-80.266748,43.534716425],[-80.2664736,43.534804612500004],[-80.2661992,43.5348928],[-80.26591768,43.53498434],[-80.26563616,43.53507588],[-80.26535464,43.53516742],[-80.26507312,43.53525896],[-80.2647916,43.5353505],[-80.26454072,43.5354311],[-80.26428984,43.5355117],[-80.26403896,43.5355923],[-80.26378808,43.5356729],[-80.2635372,43.5357535],[-80.2633731,43.5358044],[-80.2631136,43.5358938],[-80.2628541,43.5359832],[-80.2627597,43.5360116],[-80.2626785,43.5360361],[-80.26248465,43.53610585],[-80.2622908,43.5361756],[-80.26214825,43.53622695],[-80.2620057,43.5362783],[-80.26186225000001,43.53633215],[-80.2617188,43.536386],[-80.26149966,43.53647168],[-80.26128052,43.536557359999996],[-80.26106138,43.53664304],[-80.26084224,43.53672872],[-80.2606231,43.5368144],[-80.26037442500001,43.5369142],[-80.26012575,43.537014],[-80.25987707499999,43.5371138],[-80.2596284,43.5372136],[-80.25938925,43.5373145],[-80.2591501,43.5374154],[-80.25895655,43.5374968],[-80.258763,43.5375782],[-80.25860575,43.53764635],[-80.2584485,43.5377145],[-80.2583791,43.5377446],[-80.2583086,43.5377748],[-80.2582754,43.5377889],[-80.25810925,43.53786425],[-80.2579431,43.5379396],[-80.2577928,43.538008700000006],[-80.2576425,43.5380778],[-80.25744335,43.538169800000006],[-80.2572442,43.5382618],[-80.25704110000001,43.5383633],[-80.256838,43.5384648],[-80.2566625,43.53855315],[-80.256487,43.5386415],[-80.25625056666667,43.53876056666667],[-80.25601413333334,43.53887963333333],[-80.2557777,43.5389987],[-80.25557603333333,43.5391006],[-80.25537436666667,43.5392025],[-80.2551727,43.5393044],[-80.2550874,43.5393477],[-80.255027,43.5393777],[-80.2548847,43.5394483],[-80.2546562,43.539563349999995],[-80.25442770000001,43.5396784],[-80.2541992,43.539793450000005],[-80.2539707,43.5399085],[-80.2537414,43.540024],[-80.2535121,43.5401395],[-80.2534413,43.5401751],[-80.25330364999999,43.54024485],[-80.253166,43.5403146],[-80.2530585,43.5403679],[-80.2529963,43.5403992],[-80.25277497500001,43.540510625],[-80.25255365000001,43.54062205],[-80.252332325,43.540733475],[-80.252111,43.5408449],[-80.25189755,43.540952383333334],[-80.2516841,43.54105986666667],[-80.25147065,43.54116735],[-80.2512572,43.54127483333333],[-80.25104375000001,43.54138231666667],[-80.2508303,43.5414898],[-80.25060306666667,43.5416042],[-80.25037583333334,43.541718599999996],[-80.2501486,43.541833],[-80.24997185000001,43.5419238],[-80.2497951,43.5420146],[-80.24964825,43.542090099999996],[-80.2495014,43.5421656],[-80.2493449,43.54224945],[-80.2491884,43.5423333],[-80.2489582,43.542467]]}}]}