{"type":"FeatureCollection","features":[{"type":"Feature","properties":{"name":"ION LRT northbound (Fairway→Conestoga)","route":"ion","direction":"north","gauge_mm":1435,"electrified":"750V DC","length_m":16191,"source":"OpenStreetMap contributors (ODbL) — railway=light_rail ways, direction-tagged"},"geometry":{"type":"LineString","coordinates":[[-80.4419779,43.4223314],[-80.4424232,43.4222565],[-80.4425126,43.4222413],[-80.4426416,43.4222196],[-80.4430055,43.4221545],[-80.4430942,43.4221404],[-80.4431529,43.422129],[-80.4432661,43.4221075],[-80.4433586,43.4220922],[-80.4442588,43.4219406],[-80.4451314,43.4217837],[-80.4460792,43.4216012],[-80.4487907,43.4211438],[-80.4492172,43.4210581],[-80.4505216,43.4207534],[-80.4543505,43.419846],[-80.4546107,43.4197736],[-80.4548114,43.4196984],[-80.4553279,43.4194933],[-80.4553773,43.4194751],[-80.4554669,43.4194519],[-80.4555932,43.4194345],[-80.455707,43.4194384],[-80.455831,43.4194575],[-80.4559976,43.419515],[-80.4561981,43.4196369],[-80.4570379,43.4202172],[-80.4577592,43.4206786],[-80.4578904,43.4207626],[-80.4579745,43.4208189],[-80.458227,43.4209552],[-80.4584711,43.4210716],[-80.4585752,43.421113],[-80.4586029,43.421124],[-80.4587374,43.4211688],[-80.4587953,43.4211861],[-80.459001,43.4212476],[-80.4592165,43.4212963],[-80.4593011,43.4213154],[-80.4599439,43.4214366],[-80.4605035,43.421544],[-80.4607818,43.4216016],[-80.4610518,43.4216666],[-80.4612508,43.4217281],[-80.4614458,43.4217926],[-80.4616283,43.4218688],[-80.4618108,43.4219509],[-80.4621294,43.4221307],[-80.4621567,43.4221486],[-80.4623339,43.4222649],[-80.4624977,43.4223933],[-80.4625453,43.422428],[-80.4627943,43.4226337],[-80.4633091,43.4230712],[-80.4633803,43.4231309],[-80.4635343,43.4232543],[-80.4636876,43.4233902],[-80.4638377,43.4235311],[-80.4639796,43.423681],[-80.4642981,43.4240066],[-80.4644822,43.4241769],[-80.464656,43.4243217],[-80.4649366,43.4245558],[-80.4651767,43.424756],[-80.4653244,43.4248848],[-80.4654597,43.4250182],[-80.4655774,43.4251407],[-80.4656972,43.4252949],[-80.4658566,43.4255292],[-80.4659666,43.4257474],[-80.4660836,43.4260407],[-80.4661279,43.4261567],[-80.4661665,43.4262398],[-80.4662016,43.4262806],[-80.4662509,43.426318],[-80.4663184,43.4263504],[-80.4663998,43.4263708],[-80.4664961,43.426376],[-80.4665557,43.4263666],[-80.4666444,43.4263434],[-80.4667676,43.4262998],[-80.4671724,43.4261592],[-80.4679026,43.4259055],[-80.468156,43.4258175],[-80.4682247,43.4258009],[-80.4682935,43.4257939],[-80.4683809,43.4257953],[-80.4684383,43.4258031],[-80.4684859,43.4258139],[-80.4685661,43.4258428],[-80.4686378,43.4258851],[-80.4687408,43.4259689],[-80.4696424,43.4267254],[-80.4700465,43.4270633],[-80.4706117,43.4275346],[-80.4708942,43.4277681],[-80.4711648,43.4279928],[-80.4715291,43.428316],[-80.4718603,43.4286546],[-80.472165,43.4289998],[-80.4723753,43.4292335],[-80.4726564,43.4295098],[-80.4728634,43.4296881],[-80.4729112,43.429729],[-80.4730023,43.429807],[-80.4735139,43.4302278],[-80.4740309,43.4306602],[-80.4744523,43.4309509],[-80.4749039,43.4312329],[-80.4755453,43.4316607],[-80.4757103,43.4317863],[-80.4759821,43.4320124],[-80.4765317,43.4324734],[-80.4765464,43.4324858],[-80.4769392,43.4328166],[-80.4773226,43.433173],[-80.4774818,43.4333014],[-80.4778799,43.4336369],[-80.4781693,43.433881],[-80.4782244,43.433926],[-80.4782384,43.4339381],[-80.4783049,43.4339957],[-80.4783422,43.4340315],[-80.4784085,43.4341019],[-80.4784526,43.4341919],[-80.4784953,43.4342811],[-80.4785112,43.4343701],[-80.4785134,43.43446],[-80.4785093,43.4345195],[-80.4783082,43.4351902],[-80.4781485,43.4356544],[-80.4781028,43.4357678],[-80.4780666,43.4358341],[-80.4780171,43.4358922],[-80.4777829,43.4361079],[-80.4776216,43.4362636],[-80.4775924,43.4362918],[-80.4773014,43.4365609],[-80.4771811,43.4366721],[-80.4770613,43.4367821],[-80.4769694,43.4368664],[-80.4768624,43.4369633],[-80.4762017,43.4375614],[-80.4758633,43.4378455],[-80.4755377,43.4381479],[-80.4752062,43.4384388],[-80.4748895,43.4387169],[-80.4748074,43.4387884],[-80.4746274,43.438948],[-80.4744428,43.4391118],[-80.4741026,43.439409],[-80.4738735,43.4396107],[-80.4735009,43.4399406],[-80.4733843,43.4400439],[-80.473038,43.4403505],[-80.4728116,43.4405862],[-80.4725156,43.440913],[-80.4723803,43.441071],[-80.4723466,43.4411541],[-80.4723469,43.4411827],[-80.4723535,43.4412225],[-80.4723648,43.4412519],[-80.4723932,43.4412956],[-80.4724355,43.4413366],[-80.4725246,43.4413834],[-80.4726663,43.441437],[-80.4731412,43.4416496],[-80.4741853,43.4421087],[-80.4741934,43.4421125],[-80.4743221,43.4421726],[-80.4744325,43.4422174],[-80.474546,43.4422576],[-80.474703,43.4422982],[-80.4753354,43.4424347],[-80.4754011,43.4424494],[-80.4759445,43.4425751],[-80.4765038,43.4427006],[-80.4767884,43.4427689],[-80.4769689,43.4428301],[-80.4771969,43.4429538],[-80.4773351,43.443058],[-80.4777414,43.443455],[-80.4778543,43.4435412],[-80.4780029,43.4436287],[-80.4780216,43.4436369],[-80.4782073,43.4437197],[-80.4784217,43.4438203],[-80.4809541,43.4450078],[-80.48144,43.4452414],[-80.4815132,43.4452765],[-80.481595,43.4453195],[-80.4821116,43.4455912],[-80.4830845,43.446092],[-80.4838824,43.446482],[-80.4839979,43.4465384],[-80.4840878,43.4465813],[-80.484117,43.4465952],[-80.4841854,43.4466289],[-80.4849014,43.446969],[-80.4854121,43.4471946],[-80.4863581,43.4475894],[-80.487945,43.4482538],[-80.4880821,43.448331],[-80.4881047,43.448352],[-80.4881145,43.4483626],[-80.4881374,43.4484011],[-80.488148,43.4484397],[-80.4881532,43.4484925],[-80.4881248,43.4485681],[-80.4879369,43.448823],[-80.4877325,43.4491269],[-80.4876843,43.4491988],[-80.4876161,43.4493025],[-80.487437,43.4495756],[-80.4872294,43.4498914],[-80.4870541,43.4501872],[-80.4870384,43.4502346],[-80.4870378,43.4502538],[-80.4870417,43.4502857],[-80.4870498,43.4503169],[-80.4870643,43.4503559],[-80.4870838,43.450382],[-80.4871232,43.4504178],[-80.4871851,43.4504529],[-80.4872858,43.4504967],[-80.4875388,43.4505999],[-80.4875473,43.4506033],[-80.4881752,43.450853],[-80.4882715,43.4508913],[-80.4883902,43.4509384],[-80.4888797,43.4511328],[-80.4894644,43.4513649],[-80.4894865,43.4513731],[-80.4895729,43.4514048],[-80.4896656,43.4514389],[-80.489724,43.4514604],[-80.4903188,43.4517009],[-80.4910743,43.4520083],[-80.4913045,43.4521032],[-80.4913961,43.4521427],[-80.4915263,43.4521976],[-80.4918069,43.4523049],[-80.4919525,43.4523373],[-80.4921227,43.4523595],[-80.492308,43.4523788],[-80.4925397,43.4524043],[-80.4927392,43.4524247],[-80.4928418,43.4524365],[-80.4930014,43.4524649],[-80.4931812,43.4525155],[-80.4934891,43.4526134],[-80.493819,43.4527163],[-80.4939773,43.4527664],[-80.4940473,43.4527889],[-80.494111,43.4528094],[-80.4949005,43.4530577],[-80.4949874,43.4530757],[-80.4950303,43.453079],[-80.4951107,43.4530796],[-80.4952191,43.4530623],[-80.4952483,43.4530536],[-80.4956349,43.4529227],[-80.4957486,43.4528739],[-80.4958518,43.4528104],[-80.4959364,43.4527329],[-80.4959529,43.4527161],[-80.4959737,43.4526933],[-80.4960115,43.4526366],[-80.4960547,43.4525765],[-80.4961525,43.4524627],[-80.496199,43.4524267],[-80.4962552,43.4523996],[-80.4963057,43.4523838],[-80.4963444,43.4523764],[-80.4964308,43.4523736],[-80.4965179,43.4523878],[-80.496571,43.4524048],[-80.4978521,43.4528199],[-80.4979473,43.4528539],[-80.4981256,43.4529227],[-80.4982976,43.4529855],[-80.4983911,43.4530191],[-80.4989362,43.4531957],[-80.5007144,43.4537509],[-80.5008618,43.4537848],[-80.5010235,43.4538212],[-80.5012444,43.4538691],[-80.5012831,43.4538772],[-80.5014731,43.4539304],[-80.5019774,43.454092],[-80.5025121,43.4542645],[-80.5027693,43.4543438],[-80.5029656,43.4544045],[-80.503149,43.4544608],[-80.5038814,43.4546852],[-80.5046316,43.454914],[-80.5050335,43.4550393],[-80.5050997,43.4550599],[-80.5052255,43.4550994],[-80.5056839,43.4552432],[-80.5078596,43.4559429],[-80.5079613,43.4559756],[-80.5081005,43.4560211],[-80.5093999,43.4564459],[-80.5096875,43.4565416],[-80.50978,43.4565725],[-80.5098865,43.4566115],[-80.510589,43.4568389],[-80.5107683,43.4568985],[-80.5108563,43.456928],[-80.5113009,43.4570765],[-80.5114486,43.4571259],[-80.5116003,43.4571764],[-80.5124665,43.4574645],[-80.5131728,43.4576995],[-80.5132474,43.4577242],[-80.5133497,43.4577572],[-80.5153421,43.4584101],[-80.5154763,43.4584524],[-80.5156448,43.4585073],[-80.5158211,43.4585687],[-80.5164168,43.4587619],[-80.5165577,43.4588219],[-80.5174444,43.4593409],[-80.5175383,43.4593958],[-80.5176649,43.45947],[-80.518599,43.4600221],[-80.5189574,43.4602304],[-80.5189968,43.4602534],[-80.5190889,43.4603113],[-80.5192108,43.4603894],[-80.5192515,43.4604163],[-80.5197301,43.4607],[-80.5202305,43.4609907],[-80.5206403,43.4612277],[-80.5210599,43.4614709],[-80.5212157,43.4615714],[-80.5212736,43.4616286],[-80.5213444,43.4617113],[-80.5213822,43.4618115],[-80.5214369,43.4619972],[-80.5218611,43.4635336],[-80.5218884,43.4636368],[-80.5219154,43.4637327],[-80.5220039,43.4640613],[-80.5220241,43.4641121],[-80.5220731,43.4641744],[-80.522106,43.4642002],[-80.5221557,43.4642259],[-80.522214,43.4642458],[-80.5222504,43.4642555],[-80.5223111,43.4642623],[-80.5224814,43.4642498],[-80.5229652,43.4641839],[-80.5230576,43.4641721],[-80.5232488,43.4641473],[-80.5234145,43.4641275],[-80.523509,43.4641133],[-80.523599,43.4641028],[-80.5237855,43.4640822],[-80.5239829,43.4640826],[-80.5240126,43.4640841],[-80.5240515,43.4640873],[-80.5241708,43.4640995],[-80.524311,43.4641219],[-80.5248552,43.4642397],[-80.5249339,43.4642597],[-80.5250769,43.46429],[-80.5251325,43.4643021],[-80.5253008,43.464339],[-80.5253576,43.4643502],[-80.5254344,43.4643666],[-80.5255141,43.4643837],[-80.5261732,43.4645213],[-80.5264117,43.464572],[-80.5276568,43.4648368],[-80.527681,43.4648419],[-80.5283019,43.4649724],[-80.5287209,43.4650604],[-80.5291983,43.4651797],[-80.5293983,43.4652384],[-80.5297718,43.465387],[-80.5298712,43.465432],[-80.5300918,43.4655495],[-80.5304083,43.4657492],[-80.5305763,43.4658727],[-80.5307187,43.4659938],[-80.5313502,43.4665548],[-80.5315905,43.4667656],[-80.5327388,43.4677818],[-80.533283,43.4682231],[-80.5336829,43.468479],[-80.5339698,43.4686463],[-80.5346928,43.4690676],[-80.5347489,43.4691003],[-80.53483,43.469148],[-80.5349336,43.4692075],[-80.5350749,43.4692887],[-80.5362427,43.4699596],[-80.5376935,43.4707976],[-80.5377936,43.4708553],[-80.5378339,43.4708781],[-80.537871,43.4708992],[-80.5379827,43.4709638],[-80.5380184,43.4709848],[-80.538045,43.4710005],[-80.538191,43.4710849],[-80.5384725,43.4712476],[-80.5394105,43.4717868],[-80.5396877,43.4719566],[-80.5399295,43.4721249],[-80.5402454,43.4723727],[-80.5404889,43.4725997],[-80.5406646,43.4727823],[-80.5408253,43.4729572],[-80.5411623,43.473296],[-80.5413296,43.4734728],[-80.5415078,43.4736566],[-80.5415557,43.4737031],[-80.5415892,43.4737382],[-80.5417961,43.473957],[-80.5419158,43.4740983],[-80.5420018,43.4742006],[-80.5420594,43.4742784],[-80.5421797,43.4744492],[-80.542356,43.4747392],[-80.5424887,43.4750083],[-80.5428615,43.4758358],[-80.5428867,43.4758885],[-80.5429294,43.4759846],[-80.5429596,43.4760504],[-80.5430193,43.4761667],[-80.5431638,43.4764731],[-80.5435779,43.4773584],[-80.5447555,43.479742],[-80.5448344,43.4799267],[-80.5449215,43.4801796],[-80.5449971,43.4804616],[-80.5450448,43.480733],[-80.545082,43.4813542],[-80.5450999,43.4816156],[-80.5451422,43.4820087],[-80.5451692,43.4824028],[-80.5451631,43.4828349],[-80.5451115,43.4831567],[-80.5448274,43.484306],[-80.5445732,43.4854526],[-80.5445559,43.4855253],[-80.5445316,43.4856221],[-80.544291,43.4865236],[-80.5440891,43.4870456],[-80.5437882,43.4877104],[-80.5432752,43.4885933],[-80.5425227,43.4898349],[-80.5421888,43.4903912],[-80.5418905,43.4908881],[-80.5417075,43.4912841],[-80.5415796,43.4916379],[-80.5415172,43.4918967],[-80.5414889,43.4920279],[-80.5414489,43.4922959],[-80.5414216,43.4926138],[-80.541403,43.4928027],[-80.5413607,43.4931929],[-80.5413584,43.4934253],[-80.5413831,43.4937197],[-80.5414505,43.4940784],[-80.5415142,43.4943269],[-80.5416759,43.4947413],[-80.5418352,43.4950494],[-80.5419643,43.4952649],[-80.5421922,43.4956358],[-80.5422648,43.4957502],[-80.5423159,43.4958265],[-80.5423729,43.4959278],[-80.5425362,43.496193],[-80.5426404,43.4963625],[-80.5428095,43.4966389],[-80.5429446,43.4968684],[-80.5429582,43.4968922],[-80.5429998,43.4969664],[-80.5433315,43.4974875],[-80.5433796,43.4975623],[-80.5434523,43.4977064],[-80.5434666,43.4977606],[-80.5434661,43.4978071],[-80.5434625,43.4978356],[-80.5434303,43.4979242],[-80.5434027,43.4979648],[-80.5433759,43.4979935],[-80.5433272,43.4980311],[-80.543262,43.4980683],[-80.5431867,43.4980921],[-80.542484,43.498334],[-80.5409617,43.4988574],[-80.5402284,43.4991421],[-80.5389963,43.4995995],[-80.5378191,43.5000227],[-80.5376117,43.5000973],[-80.5374241,43.5001622],[-80.5370962,43.5002755],[-80.5358323,43.5007374],[-80.5349043,43.5010673],[-80.534463,43.5012254],[-80.5336383,43.5015608],[-80.5335079,43.5015921],[-80.5333796,43.5015828],[-80.5333145,43.5015609],[-80.5332235,43.5015099],[-80.5331746,43.5014654],[-80.532834,43.5011534],[-80.5324643,43.5008404],[-80.5322068,43.5006124],[-80.5320566,43.5004818],[-80.5317848,43.5002425],[-80.5316525,43.5001222],[-80.5310364,43.4995824],[-80.5309744,43.4995301],[-80.5307805,43.4993581],[-80.5307093,43.4993108],[-80.530635,43.4992753],[-80.5305916,43.4992552],[-80.5305387,43.499238],[-80.5304747,43.499223],[-80.5304193,43.4992096],[-80.5302739,43.4991863],[-80.5302022,43.4991739],[-80.5300919,43.4991461],[-80.5300725,43.499141],[-80.530025,43.4991172],[-80.5299841,43.4990881],[-80.5299399,43.4990364],[-80.52985,43.4988612],[-80.5296933,43.4985527],[-80.529658,43.4984846],[-80.5296245,43.4984176],[-80.5293376,43.4978523]]}}]}