{"type":"FeatureCollection","features":[{"type":"Feature","properties":{"name":"ION LRT Conestoga–Fairway","route":"ion","gauge_mm":1435,"electrified":"750V DC","length_m":15930,"source":"OpenStreetMap Overpass"},"geometry":{"type":"LineString","coordinates":[[-80.5292872,43.4978595],[-80.52935915,43.498002549999995],[-80.5294311,43.4981456],[-80.52950304999999,43.49828865],[-80.529575,43.4984317],[-80.5296101,43.4984974],[-80.529635,43.4985487],[-80.5297404,43.4987018],[-80.52985,43.4988612],[-80.52989495,43.4989488],[-80.5299399,43.4990364],[-80.5299841,43.4990881],[-80.530025,43.4991172],[-80.5300725,43.499141],[-80.5300919,43.4991461],[-80.5302022,43.4991739],[-80.5302739,43.4991863],[-80.5304193,43.4992096],[-80.5304747,43.499223],[-80.5305387,43.499238],[-80.5305916,43.4992552],[-80.530635,43.4992753],[-80.5307093,43.4993108],[-80.5307805,43.4993581],[-80.53087745,43.499444100000005],[-80.5309744,43.4995301],[-80.5310364,43.4995824],[-80.531190425,43.49971735],[-80.53134445,43.4998523],[-80.531498475,43.499987250000004],[-80.5316525,43.5001222],[-80.5317848,43.5002425],[-80.5319207,43.50036215],[-80.5320566,43.5004818],[-80.5322068,43.5006124],[-80.53233555,43.500726400000005],[-80.5324643,43.5008404],[-80.53258753333333,43.500944733333334],[-80.53271076666667,43.50104906666667],[-80.532834,43.5011534],[-80.53294753333333,43.5012574],[-80.53306106666666,43.5013614],[-80.5331746,43.5014654],[-80.5332235,43.5015099],[-80.5333145,43.5015609],[-80.5333796,43.5015828],[-80.5335079,43.5015921],[-80.5336383,43.5015608],[-80.53384447500001,43.50147695],[-80.53405065000001,43.5013931],[-80.534256825,43.501309250000006],[-80.534463,43.5012254],[-80.53468365,43.50114635],[-80.5349043,43.5010673],[-80.53508989999999,43.50100132],[-80.5352755,43.50093534],[-80.53546109999999,43.50086936],[-80.5356467,43.50080338],[-80.5358323,43.5007374],[-80.53604295,43.50066041666666],[-80.5362536,43.50058343333333],[-80.53646425,43.50050645],[-80.5366749,43.50042946666667],[-80.53688555,43.50035248333333],[-80.5370962,43.5002755],[-80.53726015,43.500218849999996],[-80.5374241,43.5001622],[-80.5376117,43.5000973],[-80.5378191,43.5000227],[-80.5380153,43.49995216666667],[-80.53821149999999,43.49988163333334],[-80.5384077,43.4998111],[-80.5386039,43.49974056666667],[-80.53880009999999,43.49967003333334],[-80.5389963,43.4995995],[-80.53920165,43.49952326666667],[-80.539407,43.49944703333333],[-80.53961235,43.4993708],[-80.5398177,43.49929456666667],[-80.54002305,43.49921833333333],[-80.5402284,43.4991421],[-80.540411725,43.499070925],[-80.54059505000001,43.498999749999996],[-80.540778375,43.498928575],[-80.5409617,43.4988574],[-80.54117917142857,43.498782628571426],[-80.54139664285714,43.498707857142854],[-80.54161411428571,43.49863308571428],[-80.54183158571429,43.49855831428572],[-80.54204905714286,43.498483542857144],[-80.54226652857143,43.49840877142857],[-80.542484,43.498334],[-80.54265967500001,43.498273525],[-80.54283535,43.498213050000004],[-80.543011025,43.498152575],[-80.5431867,43.4980921],[-80.543262,43.4980683],[-80.5433272,43.4980311],[-80.5433759,43.4979935],[-80.5434027,43.4979648],[-80.5434303,43.4979242],[-80.5434625,43.4978356],[-80.5434661,43.4978071],[-80.5434666,43.4977606],[-80.5434523,43.4977064],[-80.5433796,43.4975623],[-80.5433315,43.4974875],[-80.54324857499999,43.497357225],[-80.54316564999999,43.49722695],[-80.543082725,43.497096674999995],[-80.5429998,43.4969664],[-80.5429582,43.4968922],[-80.5429446,43.4968684],[-80.54287705,43.49675365],[-80.5428095,43.4966389],[-80.54272495000001,43.4965007],[-80.5426404,43.4963625],[-80.5425883,43.49627775],[-80.5425362,43.496193],[-80.54245455,43.4960604],[-80.5423729,43.4959278],[-80.5423159,43.4958265],[-80.5422648,43.4957502],[-80.5421922,43.4956358],[-80.54211623333333,43.49551216666667],[-80.54204026666667,43.49538853333333],[-80.5419643,43.4952649],[-80.54189975,43.49515715],[-80.5418352,43.4950494],[-80.54175555,43.49489535],[-80.5416759,43.4947413],[-80.541622,43.494603166666664],[-80.54156809999999,43.494465033333334],[-80.5415142,43.4943269],[-80.54148235,43.49420265],[-80.5414505,43.4940784],[-80.54142803333333,43.49395883333333],[-80.54140556666667,43.49383926666667],[-80.5413831,43.4937197],[-80.54137075,43.4935725],[-80.5413584,43.4934253],[-80.54135955,43.4933091],[-80.5413607,43.4931929],[-80.5413748,43.49306283333333],[-80.5413889,43.49293276666666],[-80.541403,43.4928027],[-80.5414123,43.49270825],[-80.5414216,43.4926138],[-80.54143525,43.49245485],[-80.5414489,43.4922959],[-80.54146890000001,43.4921619],[-80.5414889,43.4920279],[-80.5415172,43.4918967],[-80.54154840000001,43.4917673],[-80.5415796,43.4916379],[-80.54162223333334,43.491519966666665],[-80.54166486666666,43.49140203333334],[-80.5417075,43.4912841],[-80.5417685,43.4911521],[-80.54182949999999,43.4910201],[-80.5418905,43.4908881],[-80.541965075,43.490763875],[-80.54203964999999,43.49063965],[-80.542114225,43.490515425],[-80.5421888,43.4903912],[-80.542272275,43.490252125],[-80.54235575000001,43.49011305],[-80.54243922500001,43.489973975],[-80.5425227,43.4898349],[-80.5426167625,43.489679699999996],[-80.542710825,43.4895245],[-80.5428048875,43.4893693],[-80.54289895,43.4892141],[-80.5429930125,43.489058899999996],[-80.543087075,43.488903699999995],[-80.5431811375,43.4887485],[-80.5432752,43.4885933],[-80.5433607,43.48844615],[-80.54344619999999,43.488299],[-80.54353169999999,43.488151849999994],[-80.5436172,43.4880047],[-80.5437027,43.48785755],[-80.5437882,43.4877104],[-80.543863425,43.4875442],[-80.54393865,43.487378],[-80.54401387499999,43.4872118],[-80.5440891,43.4870456],[-80.544139575,43.486915100000004],[-80.54419005,43.4867846],[-80.54424052499999,43.486654099999996],[-80.544291,43.4865236],[-80.5443311,43.48637335],[-80.5443712,43.4862231],[-80.54441130000001,43.48607285],[-80.5444514,43.4859226],[-80.54449149999999,43.48577235],[-80.5445316,43.4856221],[-80.5445559,43.4855253],[-80.5445732,43.4854526],[-80.54460951428571,43.4852888],[-80.54464582857143,43.485125000000004],[-80.54468214285714,43.4849612],[-80.54471845714286,43.4847974],[-80.54475477142857,43.484633599999995],[-80.5447910857143,43.4844698],[-80.5448274,43.484306],[-80.54486798571429,43.484141814285714],[-80.54490857142858,43.483977628571424],[-80.54494915714287,43.48381344285714],[-80.54498974285714,43.48364925714286],[-80.54503032857143,43.483485071428575],[-80.54507091428572,43.483320885714285],[-80.5451115,43.4831567],[-80.5451373,43.4829958],[-80.5451631,43.4828349],[-80.54516513333333,43.482690866666665],[-80.54516716666667,43.48254683333334],[-80.5451692,43.4824028],[-80.5451602,43.48227143333334],[-80.5451512,43.482140066666666],[-80.5451422,43.4820087],[-80.5451281,43.48187766666667],[-80.545114,43.48174663333333],[-80.5450999,43.4816156],[-80.54509095,43.4814849],[-80.545082,43.4813542],[-80.54507269999999,43.481198899999995],[-80.5450634,43.4810436],[-80.5450541,43.480888300000004],[-80.5450448,43.480733],[-80.54502095000001,43.4805973],[-80.5449971,43.4804616],[-80.5449593,43.4803206],[-80.5449215,43.4801796],[-80.54487795,43.48005315],[-80.5448344,43.4799267],[-80.54479495,43.479834350000004],[-80.5447555,43.479742],[-80.54467699333333,43.47958309333333],[-80.54459848666666,43.47942418666667],[-80.54451997999999,43.47926528],[-80.54444147333334,43.47910637333334],[-80.54436296666667,43.47894746666667],[-80.54428446,43.47878856],[-80.54420595333333,43.478629653333336],[-80.54412744666666,43.478470746666666],[-80.54404894,43.47831184],[-80.54397043333333,43.478152933333334],[-80.54389192666666,43.477994026666664],[-80.54381342,43.47783512],[-80.54373491333334,43.47767621333333],[-80.54365640666667,43.47751730666667],[-80.5435779,43.4773584],[-80.54350888333333,43.47721085],[-80.54343986666667,43.4770633],[-80.54337085,43.47691575],[-80.54330183333333,43.4767682],[-80.54323281666667,43.47662065],[-80.5431638,43.4764731],[-80.54309155,43.4763199],[-80.5430193,43.4761667],[-80.5429596,43.4760504],[-80.5429294,43.4759846],[-80.5428867,43.4758885],[-80.5428615,43.4758358],[-80.54278694,43.4756703],[-80.54271238,43.475504799999996],[-80.54263782000001,43.4753393],[-80.54256326000001,43.4751738],[-80.5424887,43.4750083],[-80.54242235000001,43.47487375],[-80.542356,43.4747392],[-80.54226785,43.4745942],[-80.5421797,43.4744492],[-80.54211955,43.474363800000006],[-80.5420594,43.4742784],[-80.5420018,43.4742006],[-80.5419158,43.4740983],[-80.5417961,43.473957],[-80.54169265,43.4738476],[-80.5415892,43.4737382],[-80.5415557,43.4737031],[-80.5415078,43.4736566],[-80.54141870000001,43.4735647],[-80.5413296,43.4734728],[-80.54124594999999,43.4733844],[-80.5411623,43.473296],[-80.54104996666666,43.473183066666664],[-80.54093763333333,43.47307013333334],[-80.5408253,43.4729572],[-80.54074495,43.47286975],[-80.5406646,43.4727823],[-80.54057675,43.472691],[-80.5404889,43.4725997],[-80.54036715000001,43.472486200000006],[-80.5402454,43.4723727],[-80.54008745,43.4722488],[-80.5399295,43.4721249],[-80.5398086,43.47204075],[-80.5396877,43.4719566],[-80.5395491,43.471871699999994],[-80.5394105,43.4717868],[-80.5392229,43.47167896],[-80.5390353,43.47157112],[-80.5388477,43.471463279999995],[-80.5386601,43.471355439999996],[-80.5384725,43.4712476],[-80.53833175,43.471166249999996],[-80.538191,43.4710849],[-80.538045,43.4710005],[-80.5380184,43.4709848],[-80.5379827,43.4709638],[-80.537871,43.4708992],[-80.5378339,43.4708781],[-80.5377936,43.4708553],[-80.5376935,43.4707976],[-80.53751215,43.47069285],[-80.5373308,43.4705881],[-80.53714945,43.47048335],[-80.5369681,43.470378600000004],[-80.53678675,43.47027385],[-80.5366054,43.4701691],[-80.53642405000001,43.47006435],[-80.5362427,43.4699596],[-80.53607587142858,43.46986375714286],[-80.53590904285714,43.46976791428572],[-80.53574221428572,43.469672071428576],[-80.53557538571428,43.46957622857143],[-80.53540855714286,43.469480385714284],[-80.53524172857142,43.46938454285714],[-80.5350749,43.4692887],[-80.5349336,43.4692075],[-80.53483,43.469148],[-80.5347489,43.4691003],[-80.5346928,43.4690676],[-80.53451205,43.468962275],[-80.53433129999999,43.46885695],[-80.53415054999999,43.468751625],[-80.5339698,43.4686463],[-80.53382635,43.46856265],[-80.5336829,43.468479],[-80.5335496,43.4683937],[-80.5334163,43.468308400000005],[-80.533283,43.4682231],[-80.53314695,43.468112775],[-80.5330109,43.46800245],[-80.53287485,43.467892125],[-80.5327388,43.4677818],[-80.5325952625,43.467654775],[-80.532451725,43.46752775],[-80.5323081875,43.467400725],[-80.53216465,43.4672737],[-80.53202111249999,43.467146675],[-80.531877575,43.46701965],[-80.5317340375,43.466892625],[-80.5315905,43.4667656],[-80.53147035,43.4666602],[-80.5313502,43.4665548],[-80.5312239,43.4664426],[-80.5310976,43.4663304],[-80.5309713,43.4662182],[-80.530845,43.466105999999996],[-80.5307187,43.4659938],[-80.5305763,43.4658727],[-80.5304083,43.4657492],[-80.53025005,43.46564935],[-80.5300918,43.4655495],[-80.52998149999999,43.46549075],[-80.5298712,43.465432],[-80.5297718,43.465387],[-80.52958505000001,43.4653127],[-80.5293983,43.4652384],[-80.5291983,43.4651797],[-80.52903916666666,43.46513993333333],[-80.52888003333334,43.465100166666666],[-80.5287209,43.4650604],[-80.5285114,43.465016399999996],[-80.5283019,43.4649724],[-80.52809493333334,43.464928900000004],[-80.52788796666667,43.4648854],[-80.527681,43.4648419],[-80.5276568,43.4648368],[-80.52744928333334,43.46479266666667],[-80.52724176666666,43.464748533333335],[-80.52703425,43.4647044],[-80.52682673333334,43.46466026666666],[-80.52661921666666,43.46461613333333],[-80.5264117,43.464572],[-80.52628815,43.4645326],[-80.5261646,43.4644932],[-80.52602139999999,43.4644525],[-80.5258782,43.4644118],[-80.52574535,43.46438335],[-80.5256125,43.4643549],[-80.5255584,43.4643433],[-80.5254548,43.4643231],[-80.525382,43.4643072],[-80.525343,43.4642978],[-80.5252872,43.4642847],[-80.5252282,43.4642648],[-80.525166,43.4642386],[-80.5250925,43.4641929],[-80.525051,43.4641535],[-80.5249503,43.464031000000006],[-80.5248496,43.4639085],[-80.52476265,43.463801950000004],[-80.5246757,43.4636954],[-80.524567,43.4635622],[-80.5245298,43.4635182],[-80.5244196,43.46338055],[-80.5243094,43.4632429],[-80.5242317,43.46314845],[-80.524154,43.463054],[-80.524079,43.4629597],[-80.5239694,43.462826050000004],[-80.5238598,43.4626924],[-80.5237773,43.4625871],[-80.5236948,43.4624818],[-80.52360616666667,43.4623717],[-80.52351753333333,43.4622616],[-80.5234289,43.4621515],[-80.52333236666666,43.462032],[-80.52323583333333,43.4619125],[-80.5231393,43.461793],[-80.5230249,43.461656399999995],[-80.5229105,43.4615198],[-80.52281550000001,43.461406249999996],[-80.5227205,43.4612927],[-80.52263,43.4611773],[-80.5225018,43.4610404],[-80.5223683,43.4609319],[-80.52225,43.4608604],[-80.5221712,43.460815],[-80.52198225000001,43.4607062],[-80.5217933,43.4605974],[-80.5216007,43.460486849999995],[-80.5214081,43.4603763],[-80.521248475,43.4602839],[-80.52108885,43.4601915],[-80.520929225,43.4600991],[-80.5207696,43.4600067],[-80.52057933333333,43.4598951],[-80.52038906666667,43.4597835],[-80.5201988,43.4596719],[-80.520132,43.4596536],[-80.5200825,43.4596471],[-80.5200318,43.459644],[-80.5199618,43.4596535],[-80.5199167,43.4596634],[-80.5198789,43.4596783],[-80.5198036,43.4597285],[-80.51970270000001,43.45981575],[-80.5196018,43.459903],[-80.51949400000001,43.45999795],[-80.5193862,43.4600929],[-80.5193246,43.4601311],[-80.5192541,43.4601592],[-80.5192014,43.4601734],[-80.5191822,43.4601736],[-80.5191089,43.4601741],[-80.5190478,43.4601706],[-80.5190274,43.4601679],[-80.5189359,43.4601345],[-80.5187562,43.46003366666667],[-80.51857650000001,43.45993283333333],[-80.5183968,43.459832],[-80.51822597500001,43.459730225],[-80.51805515000001,43.45962845],[-80.517884325,43.459526675],[-80.5177135,43.4594249],[-80.5175871,43.4593532],[-80.5174915,43.4592983],[-80.51731356,43.45919586],[-80.51713562,43.45909342],[-80.51695768,43.458990979999996],[-80.51677974,43.45888854],[-80.5166018,43.4587861],[-80.5164844,43.4587365],[-80.5162787,43.458669775000004],[-80.516073,43.45860305],[-80.5158673,43.458536325],[-80.5156616,43.4584696],[-80.5154964,43.4584161],[-80.5153593,43.4583703],[-80.5151395,43.45829693333333],[-80.51491970000001,43.45822356666667],[-80.5146999,43.4581502],[-80.5144801,43.45807683333333],[-80.5142603,43.45800346666667],[-80.51404050000001,43.4579301],[-80.5138207,43.45785673333333],[-80.5136009,43.45778336666667],[-80.5133811,43.45771],[-80.5132793,43.457676],[-80.5132034,43.4576475],[-80.51304766666667,43.457588566666665],[-80.51289193333334,43.45752963333334],[-80.5127362,43.4574707],[-80.51254278,43.4574076],[-80.51234936,43.457344500000005],[-80.51215594,43.4572814],[-80.51196252,43.4572183],[-80.5117691,43.4571552],[-80.5116419,43.4571137],[-80.5114908,43.4570644],[-80.5113366,43.4570162],[-80.5111138,43.4569464],[-80.510891,43.4568766],[-80.5107994,43.4568478],[-80.5106212,43.4567916],[-80.510443325,43.456738025],[-80.51026544999999,43.45668445],[-80.510087575,43.456630875],[-80.5099097,43.4565773],[-80.5098017,43.4565396],[-80.509712,43.4565048],[-80.509531775,43.456446174999996],[-80.50935154999999,43.45638755],[-80.509171325,43.456328925],[-80.5089911,43.4562703],[-80.508773725,43.456199575],[-80.50855634999999,43.45612885],[-80.508338975,43.456058125],[-80.5081216,43.4559874],[-80.5079797,43.4559412],[-80.5078808,43.4559087],[-80.50768466,43.4558442],[-80.50748852,43.4557797],[-80.50729238,43.4557152],[-80.50709624,43.4556507],[-80.5069001,43.4555862],[-80.50667766666666,43.455515766666664],[-80.50645523333333,43.45544533333333],[-80.50623279999999,43.455374899999995],[-80.50601036666667,43.45530446666667],[-80.50578793333334,43.45523403333333],[-80.5055655,43.4551636],[-80.50540685,43.45511335],[-80.5052482,43.4550631],[-80.5051252,43.4550241],[-80.5050552,43.455002],[-80.504829,43.4549307],[-80.5046028,43.454859400000004],[-80.5043766,43.4547881],[-80.50417498333333,43.45472778333333],[-80.50397336666667,43.45466746666667],[-80.50377175,43.45460715],[-80.50357013333333,43.45454683333333],[-80.50336851666667,43.45448651666667],[-80.5031669,43.4544262],[-80.5030106,43.4543794],[-80.5028245,43.4543203],[-80.50262074285715,43.45425562857143],[-80.50241698571429,43.454190957142856],[-80.50221322857143,43.45412628571429],[-80.50200947142856,43.45406161428571],[-80.50180571428571,43.453996942857145],[-80.50160195714285,43.45393227142857],[-80.5013982,43.4538676],[-80.5012726,43.4538223],[-80.5010661,43.4537407],[-80.500925,43.4536852],[-80.5007234,43.4536057],[-80.5005118,43.4535381375],[-80.5003002,43.453470575],[-80.5000886,43.4534030125],[-80.499877,43.45333545],[-80.4996654,43.4532678875],[-80.4994538,43.453200325],[-80.4992422,43.4531327625],[-80.4990306,43.4530652],[-80.49886473333333,43.45301263333333],[-80.49869886666666,43.45296006666667],[-80.498533,43.4529075],[-80.4984509,43.4528701],[-80.4984072,43.4528347],[-80.4983793,43.4528017],[-80.49836,43.4527638],[-80.4983537,43.4527023],[-80.4983667,43.4526415],[-80.49844495,43.45249915],[-80.4985232,43.452356800000004],[-80.49860145,43.45221445],[-80.4986797,43.4520721],[-80.4987013,43.4520003],[-80.4987003,43.4519527],[-80.4986891,43.4518917],[-80.4986265,43.4518342],[-80.4985569,43.4517892],[-80.4984966,43.4517621],[-80.49828124999999,43.45168805],[-80.4980659,43.451614],[-80.49786952,43.45155258],[-80.49767314,43.451491159999996],[-80.49747676,43.45142974],[-80.49728038,43.45136832],[-80.497084,43.4513069],[-80.4969385,43.4512609],[-80.496848,43.4512333],[-80.4968078,43.451221],[-80.49659005714285,43.451150857142856],[-80.49637231428571,43.45108071428571],[-80.49615457142856,43.45101057142857],[-80.49593682857143,43.45094042857143],[-80.49571908571428,43.45087028571429],[-80.49550134285714,43.45080014285714],[-80.4952836,43.45073],[-80.4952397,43.4507161],[-80.495164,43.4506924],[-80.4951231,43.4506795],[-80.4949972,43.4506373],[-80.49480015,43.45057235],[-80.4946031,43.4505074],[-80.49444240000001,43.4504568],[-80.4942817,43.4504062],[-80.494121,43.4503556],[-80.493948825,43.450300375],[-80.49377665,43.45024515],[-80.493604475,43.450189925000004],[-80.4934323,43.4501347],[-80.4932208,43.4500686],[-80.4930992,43.4500334],[-80.4929373,43.4499819],[-80.49274009999999,43.449916849999994],[-80.49254289999999,43.4498518],[-80.4923457,43.44978675],[-80.4921485,43.4497217],[-80.49201825,43.4496811],[-80.491888,43.4496405],[-80.4916814,43.44957693333333],[-80.49147479999999,43.449513366666665],[-80.4912682,43.4494498],[-80.491193,43.4494271],[-80.4911388,43.4494068],[-80.4910554,43.4493752],[-80.4908705,43.4493068],[-80.49073920000001,43.44924505],[-80.4906079,43.4491833],[-80.4905191,43.4491238],[-80.49032969999999,43.44902035],[-80.4901403,43.4489169],[-80.4901131,43.448902],[-80.4900626,43.4488758],[-80.4899648,43.4488386],[-80.4899323,43.4488275],[-80.48972355000001,43.4487564],[-80.4895148,43.4486853],[-80.48932549999999,43.4486257],[-80.4891362,43.4485661],[-80.4889469,43.4485065],[-80.4887837,43.448450550000004],[-80.4886205,43.4483946],[-80.4885807,43.4483819],[-80.4884739,43.4483505],[-80.488316,43.4483138],[-80.4881885,43.4482851],[-80.4881726,43.448282],[-80.4880753,43.4482552],[-80.4879753,43.4482214],[-80.48784345,43.4481673],[-80.4877116,43.4481132],[-80.48751090769231,43.44802883076923],[-80.48731021538461,43.44794446153846],[-80.48710952307692,43.44786009230769],[-80.48690883076922,43.44777572307692],[-80.48670813846154,43.44769135384615],[-80.48650744615385,43.44760698461538],[-80.48630675384615,43.44752261538462],[-80.48610606153846,43.44743824615385],[-80.48590536923078,43.44735387692308],[-80.48570467692308,43.44726950769231],[-80.48550398461539,43.44718513846154],[-80.48530329230769,43.44710076923077],[-80.4851026,43.4470164],[-80.48492035000001,43.446921425],[-80.4847381,43.44682645],[-80.48455584999999,43.446731475],[-80.4843736,43.4466365],[-80.4842373,43.4465709],[-80.4841683,43.446538],[-80.4841383,43.4465234],[-80.4840493,43.4464803],[-80.48385175,43.44638515],[-80.4836542,43.44629],[-80.48348945000001,43.446210625],[-80.4833247,43.44613125],[-80.48315995,43.446051875],[-80.4829952,43.4459725],[-80.48279967142858,43.44587418571429],[-80.48260414285714,43.44577587142857],[-80.48240861428572,43.44567755714286],[-80.48221308571429,43.44557924285714],[-80.48201755714287,43.44548092857143],[-80.48182202857143,43.44538261428571],[-80.4816265,43.4452843],[-80.4815437,43.4452427],[-80.4814693,43.4452069],[-80.48129982,43.44512538],[-80.48113034,43.44504386],[-80.48096086,43.444962340000004],[-80.48079138,43.44488082],[-80.4806219,43.4447993],[-80.48042779090909,43.44470855454546],[-80.48023368181819,43.44461780909091],[-80.48003957272728,43.444527063636365],[-80.47984546363637,43.44443631818182],[-80.47965135454545,43.44434557272727],[-80.47945724545455,43.44425482727273],[-80.47926313636364,43.44416408181818],[-80.47906902727273,43.44407333636364],[-80.47887491818182,43.443982590909094],[-80.47868080909092,43.443891845454544],[-80.4784867,43.4438011],[-80.47837770000001,43.4437501],[-80.4782687,43.4436991],[-80.4780843,43.4436155],[-80.4779507,43.4435451],[-80.4778373,43.4434678],[-80.4777254,43.4433599],[-80.4776108,43.44325133333333],[-80.4774962,43.44314276666667],[-80.4773816,43.4430342],[-80.4772395,43.4429202],[-80.4771224,43.4428538],[-80.4770053,43.4427874],[-80.4768246,43.4427135],[-80.4766992,43.4426799],[-80.4765738,43.4426463],[-80.47637411666666,43.4426015],[-80.47617443333333,43.4425567],[-80.47597475,43.4425119],[-80.47577506666667,43.4424671],[-80.47557538333334,43.4424223],[-80.4753757,43.4423775],[-80.4753164,43.4423637],[-80.4751346,43.4423233],[-80.4749528,43.4422829],[-80.474771,43.4422425],[-80.4746847,43.4422075],[-80.4746293,43.4421661],[-80.4746058,43.4421442],[-80.4745803,43.4421012],[-80.4745728,43.4420835],[-80.4745629,43.4420161],[-80.4745702,43.4419726],[-80.4745962,43.4419256],[-80.47471619999999,43.441783825],[-80.4748362,43.44164205],[-80.47495620000001,43.441500274999996],[-80.4750762,43.4413585],[-80.4750941,43.441342],[-80.4751585,43.4412823],[-80.4752566,43.44119145],[-80.4753547,43.4411006],[-80.47549054999999,43.4409797],[-80.4756264,43.4408588],[-80.4757699,43.440731140000004],[-80.4759134,43.44060348],[-80.4760569,43.44047582],[-80.4762004,43.44034816],[-80.4763439,43.4402205],[-80.4764791,43.4401003],[-80.4765379,43.4400478],[-80.4766736,43.43993],[-80.4767842,43.4398318],[-80.4769381,43.439695125],[-80.477092,43.43955845],[-80.4772459,43.439421775],[-80.4773998,43.4392851],[-80.477556225,43.439149275],[-80.47771265,43.439013450000004],[-80.477869075,43.438877625],[-80.4780255,43.4387418],[-80.4780917,43.4386853],[-80.47824695,43.438550025000005],[-80.4784022,43.43841475000001],[-80.47855745,43.438279475],[-80.4787127,43.4381442],[-80.4787865,43.4380898],[-80.4788913,43.4380124],[-80.4790064,43.4379299],[-80.4790785,43.4378781],[-80.4792467,43.4377534],[-80.47938807142857,43.437627899999995],[-80.47952944285714,43.4375024],[-80.47967081428571,43.4373769],[-80.4798121857143,43.4372514],[-80.47995355714286,43.4371259],[-80.48009492857143,43.4370004],[-80.4802363,43.4368749],[-80.4803765,43.4367516],[-80.48050736666667,43.4366365],[-80.48063823333334,43.436521400000004],[-80.4807691,43.4364063],[-80.4808077,43.4363658],[-80.4808339,43.4363285],[-80.4808488,43.4362986],[-80.4808596,43.4362716],[-80.480869,43.4362411],[-80.4808792,43.4361928],[-80.4808738,43.436146],[-80.4808692,43.4361106],[-80.4808531,43.4360624],[-80.4808365,43.4360282],[-80.480803,43.4359853],[-80.4807609,43.4359402],[-80.48060987692308,43.435815215384615],[-80.48045885384616,43.43569023076923],[-80.48030783076923,43.43556524615384],[-80.48015680769231,43.43544026153846],[-80.48000578461539,43.43531527692308],[-80.47985476153846,43.435190292307695],[-80.47970373846154,43.435065307692305],[-80.47955271538461,43.43494032307692],[-80.47940169230769,43.43481533846154],[-80.47925066923077,43.43469035384616],[-80.47909964615384,43.43456536923077],[-80.47894862307692,43.434440384615385],[-80.4787976,43.4343154],[-80.4787795,43.4343004],[-80.4786904,43.4342264],[-80.4785932,43.4341427],[-80.4785052,43.4340667],[-80.4784172,43.4339907],[-80.47825886,43.4338581],[-80.47810052,43.4337255],[-80.47794218,43.4335929],[-80.47778384,43.4334603],[-80.4776255,43.4333277],[-80.4775211,43.4332364],[-80.477367875,43.433107675],[-80.47721465000001,43.43297895],[-80.477061425,43.432850224999996],[-80.4769082,43.4327215],[-80.47677513333333,43.432605233333334],[-80.47664206666666,43.43248896666667],[-80.476509,43.4323727],[-80.47636274999999,43.4322553],[-80.4762165,43.4321379],[-80.47606043333334,43.432012666666665],[-80.47590436666667,43.43188743333334],[-80.4757483,43.4317622],[-80.47560556666667,43.43165523333334],[-80.47546283333334,43.43154826666667],[-80.4753201,43.4314413],[-80.47514592,43.431333300000006],[-80.47497174,43.4312253],[-80.47479756,43.431117300000004],[-80.47462338,43.4310093],[-80.4744492,43.4309013],[-80.47431236666667,43.430803600000004],[-80.47417553333332,43.4307059],[-80.4740387,43.4306082],[-80.47388336666667,43.43047466666667],[-80.47372803333333,43.430341133333336],[-80.4735727,43.4302076],[-80.47343967500001,43.430100925000005],[-80.47330665000001,43.42999425],[-80.473173625,43.429887574999995],[-80.4730406,43.4297809],[-80.4729712,43.4297209],[-80.47285435,43.42962],[-80.4727375,43.4295191],[-80.47264354999999,43.4294311],[-80.4725496,43.4293431],[-80.47244253333334,43.42922793333333],[-80.47233546666666,43.42911276666667],[-80.4722284,43.4289976],[-80.47212533333334,43.42888096666667],[-80.47202226666667,43.42876433333333],[-80.4719192,43.4286477],[-80.47183555000001,43.42855835],[-80.4717519,43.428469],[-80.4716652,43.4283829],[-80.4715785,43.4282968],[-80.4714888,43.42821585],[-80.4713991,43.4281349],[-80.47130335,43.4280551],[-80.4712076,43.4279753],[-80.47106685,43.4278581],[-80.4709261,43.4277409],[-80.47078535,43.4276237],[-80.4706446,43.4275065],[-80.47050385,43.42738765],[-80.4703631,43.4272688],[-80.47022235,43.42714995],[-80.4700816,43.4270311],[-80.46994726666667,43.4269172],[-80.46981293333333,43.4268033],[-80.4696786,43.4266894],[-80.4695296,43.42656598333333],[-80.4693806,43.426442566666665],[-80.4692316,43.42631915],[-80.46908260000001,43.42619573333334],[-80.4689336,43.42607231666667],[-80.4687846,43.4259489],[-80.468679,43.4258599],[-80.4685964,43.4258002],[-80.4685615,43.4257872],[-80.4684817,43.4257607],[-80.468356,43.4257444],[-80.468255,43.4257499],[-80.4681573,43.4257725],[-80.46801705,43.4258211],[-80.4678768,43.4258697],[-80.467694725,43.425932825000004],[-80.46751265,43.42599595],[-80.46733057499999,43.426059075],[-80.4671485,43.4261222],[-80.46694645,43.4261922],[-80.4667444,43.4262622],[-80.4665964,43.4263115],[-80.466517,43.4263224],[-80.4664321,43.4263176],[-80.4663468,43.4262966],[-80.4662793,43.4262638],[-80.4662196,43.4262097],[-80.4661828,43.4261539],[-80.4661332,43.4260259],[-80.46607675,43.4258825],[-80.4660203,43.4257391],[-80.4659465,43.4255893],[-80.4658553,43.4254323],[-80.4657708,43.4253053],[-80.4656967,43.42521365],[-80.4656226,43.425122],[-80.46551805,43.425013050000004],[-80.4654135,43.4249041],[-80.46532450000001,43.4248268],[-80.4652355,43.4247495],[-80.46511753333334,43.42464983333333],[-80.46499956666666,43.42455016666666],[-80.4648816,43.4244505],[-80.46479819999999,43.42437895],[-80.4647148,43.4243074],[-80.46460569999999,43.42419986666666],[-80.4644966,43.424092333333334],[-80.4643875,43.4239848],[-80.46427243333333,43.42386676666666],[-80.46415736666667,43.42374873333333],[-80.4640423,43.4236307],[-80.4639652,43.4235525],[-80.4638881,43.4234743],[-80.4637539,43.4233461],[-80.46360365000001,43.42321665],[-80.4634534,43.4230872],[-80.4633031,43.422959999999996],[-80.4631528,43.422832799999995],[-80.4630025,43.4227056],[-80.4628522,43.4225784],[-80.4627728,43.4225112],[-80.4626701,43.422429199999996],[-80.4625674,43.4223472],[-80.4623948,43.4222205],[-80.462214,43.4221044],[-80.4621847,43.4220856],[-80.46200675,43.4219911],[-80.4618288,43.4218966],[-80.4616641,43.4218247],[-80.4614988,43.4217639],[-80.4612827,43.4216865],[-80.4610552,43.4216205],[-80.4609181,43.42158905],[-80.460781,43.4215576],[-80.46064085,43.421530700000005],[-80.4605007,43.4215038],[-80.46031896666666,43.42146866666667],[-80.46013723333334,43.421433533333335],[-80.4599555,43.4213984],[-80.4597717,43.42136226666667],[-80.4595879,43.42132613333333],[-80.4594041,43.42129],[-80.4593162,43.4212723],[-80.4592329,43.4212554],[-80.4591313,43.4212347],[-80.45901305,43.421205],[-80.4588948,43.4211753],[-80.4588076,43.4211473],[-80.4586855,43.421108],[-80.4585796,43.4210667],[-80.4584736,43.4210253],[-80.45835715000001,43.4209699],[-80.4582407,43.4209145],[-80.4581342,43.420853300000005],[-80.4580277,43.4207921],[-80.4579335,43.4207288],[-80.4577999,43.4206457],[-80.45763416666667,43.42054253333333],[-80.45746843333333,43.42043936666667],[-80.4573027,43.4203362],[-80.4571515,43.420234025],[-80.4570003,43.420131850000004],[-80.4568491,43.420029675],[-80.4566979,43.4199275],[-80.4565425,43.4197996],[-80.45639025,43.4197024],[-80.456238,43.4196052],[-80.4561017,43.4195163],[-80.455989,43.4194655],[-80.4559188,43.4194398],[-80.4558275,43.4194185],[-80.4557129,43.4194009],[-80.4555982,43.4193974],[-80.4555035,43.4194085],[-80.4553883,43.4194294],[-80.4553223,43.4194504],[-80.4552724,43.419469],[-80.45510383333333,43.419534733333336],[-80.45493526666667,43.419600466666665],[-80.4547667,43.4196662],[-80.4545581,43.4197436],[-80.4543672,43.419799],[-80.45413995294118,43.41985303529412],[-80.45391270588235,43.41990707058823],[-80.45368545882353,43.41996110588235],[-80.4534582117647,43.42001514117647],[-80.45323096470588,43.42006917647059],[-80.45300371764705,43.420123211764704],[-80.45277647058823,43.420177247058824],[-80.4525492235294,43.420231282352944],[-80.45232197647059,43.42028531764706],[-80.45209472941175,43.42033935294118],[-80.45186748235294,43.4203933882353],[-80.45164023529411,43.42044742352941],[-80.45141298823529,43.42050145882353],[-80.45118574117646,43.42055549411765],[-80.45095849411764,43.42060952941177],[-80.45073124705881,43.42066356470588],[-80.450504,43.4207176],[-80.45028357999999,43.4207693],[-80.45006316,43.420821000000004],[-80.44984274,43.4208727],[-80.44962232,43.4209244],[-80.4494019,43.4209761],[-80.4491756,43.42102333333333],[-80.4489493,43.421070566666664],[-80.448723,43.4211178],[-80.448499525,43.42115549166667],[-80.44827605,43.42119318333333],[-80.448052575,43.421230875],[-80.4478291,43.42126856666666],[-80.44760562500001,43.42130625833333],[-80.44738215000001,43.421343949999994],[-80.447158675,43.42138164166666],[-80.4469352,43.42141933333333],[-80.446711725,43.421457024999995],[-80.44648825,43.421494716666665],[-80.446264775,43.42153240833333],[-80.4460413,43.4215701],[-80.44582035,43.42161215],[-80.44559939999999,43.4216542],[-80.44537844999999,43.42169625],[-80.4451575,43.4217383],[-80.44498496666667,43.42176956666667],[-80.44481243333333,43.421800833333336],[-80.4446399,43.4218321],[-80.44442963333333,43.42186766666667],[-80.44421936666667,43.42190323333333],[-80.4440091,43.4219388],[-80.4438024,43.42197613333333],[-80.4435957,43.42201346666667],[-80.443389,43.4220508],[-80.4433371,43.4220594],[-80.4432346,43.4220767],[-80.4431139,43.4220964],[-80.4429929,43.4221169],[-80.4428173,43.4221679],[-80.4426416,43.4222196],[-80.4425126,43.4222413],[-80.4424232,43.4222565],[-80.44220055,43.42229395],[-80.4419779,43.4223314]]}}]}