{"type":"FeatureCollection","features":[{"type":"Feature","properties":{"name":"ION LRT southbound (Conestoga→Fairway)","route":"ion","direction":"south","gauge_mm":1435,"electrified":"750V DC","length_m":16022,"source":"OpenStreetMap contributors (ODbL) — railway=light_rail ways, direction-tagged"},"geometry":{"type":"LineString","coordinates":[[-80.5292872,43.4978595],[-80.529575,43.4984317],[-80.5296101,43.4984974],[-80.529635,43.4985487],[-80.5297604,43.4988054],[-80.5297967,43.4988747],[-80.5298825,43.4990388],[-80.5299359,43.4991162],[-80.529992,43.4991538],[-80.5300355,43.4991737],[-80.5301497,43.4992038],[-80.5301726,43.4992081],[-80.5302338,43.4992206],[-80.5303662,43.4992427],[-80.5304531,43.4992581],[-80.5304756,43.4992643],[-80.5305113,43.4992733],[-80.5305555,43.4992854],[-80.5305863,43.4992994],[-80.5306066,43.4993066],[-80.5306838,43.4993471],[-80.530754,43.4993945],[-80.5308049,43.4994366],[-80.5309339,43.4995514],[-80.5310486,43.4996507],[-80.531442,43.4999985],[-80.5318659,43.5003728],[-80.532454,43.500892],[-80.5331808,43.5015298],[-80.5332226,43.5015656],[-80.5332988,43.5016106],[-80.5333681,43.5016343],[-80.5334273,43.50164],[-80.5334722,43.5016428],[-80.5335782,43.5016257],[-80.5336754,43.5015896],[-80.5345535,43.5012462],[-80.5374558,43.500208],[-80.5376393,43.5001423],[-80.5378485,43.5000669],[-80.5392246,43.4995711],[-80.5402562,43.4991844],[-80.5409852,43.498901],[-80.5413649,43.4987579],[-80.5417616,43.4986224],[-80.5425303,43.4983745],[-80.5433071,43.498096],[-80.5434001,43.4980561],[-80.5434768,43.498003],[-80.5435231,43.4979525],[-80.5435522,43.4979114],[-80.5435733,43.4977927],[-80.5435739,43.4977623],[-80.5435606,43.4977132],[-80.5435546,43.4976963],[-80.5434536,43.4975282],[-80.5433016,43.497267],[-80.5430347,43.4968426],[-80.5429304,43.4966767],[-80.5426299,43.4961877],[-80.5426075,43.4961407],[-80.5423908,43.495796],[-80.5421374,43.4953833],[-80.541923,43.4950346],[-80.5417906,43.4947922],[-80.5416271,43.4944068],[-80.5415494,43.4941589],[-80.5414927,43.4939071],[-80.5414562,43.4936705],[-80.5414323,43.4934485],[-80.5414286,43.4931217],[-80.5414606,43.4928016],[-80.5415397,43.492105],[-80.5416067,43.491793],[-80.5416961,43.4915063],[-80.5418117,43.4911899],[-80.5420187,43.4907985],[-80.5424632,43.4900478],[-80.5426248,43.4897749],[-80.54331,43.4886522],[-80.5438532,43.4877232],[-80.5441589,43.4870507],[-80.5443623,43.4865007],[-80.5444695,43.4860907],[-80.5445818,43.4856311],[-80.5446107,43.4855355],[-80.5446288,43.4854619],[-80.5451781,43.4831617],[-80.5452383,43.4828265],[-80.5452601,43.4824881],[-80.5452491,43.4822703],[-80.54524,43.4820898],[-80.5451805,43.4813642],[-80.5451757,43.4812582],[-80.5451673,43.4811686],[-80.5451294,43.4807635],[-80.5450867,43.480517],[-80.5449002,43.479919],[-80.544771,43.4796444],[-80.543675,43.4774222],[-80.5432897,43.4766017],[-80.5430332,43.4760257],[-80.5429978,43.4759609],[-80.5429531,43.4758689],[-80.5429257,43.4758089],[-80.5425373,43.4749706],[-80.5424112,43.4747068],[-80.5422336,43.4744074],[-80.5420686,43.4741645],[-80.5418747,43.4739318],[-80.5416677,43.473707],[-80.5416345,43.4736726],[-80.5415855,43.4736251],[-80.5415738,43.4736127],[-80.5412549,43.4732754],[-80.5409106,43.472918],[-80.5408455,43.4728505],[-80.5407513,43.4727527],[-80.5405679,43.4725699],[-80.5404301,43.47244],[-80.5402466,43.4722862],[-80.5399901,43.4720933],[-80.5397856,43.4719523],[-80.5392931,43.4716606],[-80.5385139,43.4712114],[-80.5382323,43.4710476],[-80.5380819,43.4709601],[-80.5380512,43.4709424],[-80.5380121,43.4709199],[-80.5378992,43.4708545],[-80.5378635,43.4708341],[-80.5378178,43.4708079],[-80.5369928,43.4703342],[-80.5362795,43.4699246],[-80.5357422,43.4696025],[-80.5351122,43.469228],[-80.5350066,43.4691653],[-80.5349057,43.4691059],[-80.5348185,43.4690553],[-80.5341248,43.4686504],[-80.5340266,43.4685947],[-80.5339435,43.4685483],[-80.5336833,43.4683936],[-80.5333372,43.4681766],[-80.5327648,43.4677336],[-80.5324807,43.4674856],[-80.5323815,43.4673981],[-80.5317147,43.4668103],[-80.5307686,43.4659605],[-80.5307222,43.4659188],[-80.5304709,43.4657173],[-80.5301394,43.4655127],[-80.5299135,43.4653921],[-80.5296507,43.465275],[-80.5293324,43.4651644],[-80.5290783,43.4650968],[-80.5287913,43.4650285],[-80.5282914,43.4649209],[-80.5278042,43.4648187],[-80.5262224,43.4644782],[-80.5258782,43.4644118],[-80.5256125,43.4643549],[-80.5255584,43.4643433],[-80.5254548,43.4643231],[-80.525382,43.4643072],[-80.525343,43.4642978],[-80.5252872,43.4642847],[-80.5252282,43.4642648],[-80.525166,43.4642386],[-80.5250925,43.4641929],[-80.525051,43.4641535],[-80.5248496,43.4639085],[-80.5246757,43.4636954],[-80.524567,43.4635622],[-80.5245298,43.4635182],[-80.5243094,43.4632429],[-80.524154,43.463054],[-80.524079,43.4629597],[-80.5238598,43.4626924],[-80.5236948,43.4624818],[-80.5234289,43.4621515],[-80.5231393,43.461793],[-80.5229105,43.4615198],[-80.5227205,43.4612927],[-80.52263,43.4611773],[-80.5225018,43.4610404],[-80.5223683,43.4609319],[-80.52225,43.4608604],[-80.5221712,43.460815],[-80.5217933,43.4605974],[-80.5214081,43.4603763],[-80.5207696,43.4600067],[-80.5201988,43.4596719],[-80.520132,43.4596536],[-80.5200825,43.4596471],[-80.5200318,43.459644],[-80.5199618,43.4596535],[-80.5199167,43.4596634],[-80.5198789,43.4596783],[-80.5198036,43.4597285],[-80.5196018,43.459903],[-80.5193862,43.4600929],[-80.5193246,43.4601311],[-80.5192541,43.4601592],[-80.5192014,43.4601734],[-80.5191822,43.4601736],[-80.5191089,43.4601741],[-80.5190478,43.4601706],[-80.5190274,43.4601679],[-80.5189359,43.4601345],[-80.5183968,43.459832],[-80.5177135,43.4594249],[-80.5175871,43.4593532],[-80.5174915,43.4592983],[-80.5166018,43.4587861],[-80.5164844,43.4587365],[-80.5156616,43.4584696],[-80.5154964,43.4584161],[-80.5153593,43.4583703],[-80.5133811,43.45771],[-80.5132793,43.457676],[-80.5132034,43.4576475],[-80.5127362,43.4574707],[-80.5117691,43.4571552],[-80.5116419,43.4571137],[-80.5114908,43.4570644],[-80.5113366,43.4570162],[-80.510891,43.4568766],[-80.5107994,43.4568478],[-80.5106212,43.4567916],[-80.5099097,43.4565773],[-80.5098017,43.4565396],[-80.509712,43.4565048],[-80.5089911,43.4562703],[-80.5081216,43.4559874],[-80.5079797,43.4559412],[-80.5078808,43.4559087],[-80.5069001,43.4555862],[-80.5055655,43.4551636],[-80.5052482,43.4550631],[-80.5051252,43.4550241],[-80.5050552,43.455002],[-80.5043766,43.4547881],[-80.5031669,43.4544262],[-80.5030106,43.4543794],[-80.5028245,43.4543203],[-80.5013982,43.4538676],[-80.5012726,43.4538223],[-80.5010661,43.4537407],[-80.500925,43.4536852],[-80.5007234,43.4536057],[-80.4990306,43.4530652],[-80.498533,43.4529075],[-80.4984509,43.4528701],[-80.4984072,43.4528347],[-80.4983793,43.4528017],[-80.49836,43.4527638],[-80.4983537,43.4527023],[-80.4983667,43.4526415],[-80.4986797,43.4520721],[-80.4987013,43.4520003],[-80.4987003,43.4519527],[-80.4986891,43.4518917],[-80.4986265,43.4518342],[-80.4985569,43.4517892],[-80.4984966,43.4517621],[-80.4980659,43.451614],[-80.497084,43.4513069],[-80.4969385,43.4512609],[-80.496848,43.4512333],[-80.4968078,43.451221],[-80.4952836,43.45073],[-80.4952397,43.4507161],[-80.495164,43.4506924],[-80.4951231,43.4506795],[-80.4949972,43.4506373],[-80.4946031,43.4505074],[-80.494121,43.4503556],[-80.4934323,43.4501347],[-80.4932208,43.4500686],[-80.4930992,43.4500334],[-80.4929373,43.4499819],[-80.4921485,43.4497217],[-80.491888,43.4496405],[-80.4912682,43.4494498],[-80.491193,43.4494271],[-80.4911388,43.4494068],[-80.4910554,43.4493752],[-80.4908705,43.4493068],[-80.4906079,43.4491833],[-80.4905191,43.4491238],[-80.4901403,43.4489169],[-80.4901131,43.448902],[-80.4900626,43.4488758],[-80.4899648,43.4488386],[-80.4899323,43.4488275],[-80.4895148,43.4486853],[-80.4889469,43.4485065],[-80.4886205,43.4483946],[-80.4885807,43.4483819],[-80.4884739,43.4483505],[-80.488316,43.4483138],[-80.4881885,43.4482851],[-80.4881726,43.448282],[-80.4880753,43.4482552],[-80.4879753,43.4482214],[-80.4877116,43.4481132],[-80.4851026,43.4470164],[-80.4843736,43.4466365],[-80.4842373,43.4465709],[-80.4841683,43.446538],[-80.4841383,43.4465234],[-80.4840493,43.4464803],[-80.4836542,43.44629],[-80.4829952,43.4459725],[-80.4816265,43.4452843],[-80.4815437,43.4452427],[-80.4814693,43.4452069],[-80.4806219,43.4447993],[-80.4784867,43.4438011],[-80.4782687,43.4436991],[-80.4780843,43.4436155],[-80.4779507,43.4435451],[-80.4778373,43.4434678],[-80.4777254,43.4433599],[-80.4773816,43.4430342],[-80.4772395,43.4429202],[-80.4770053,43.4427874],[-80.4768246,43.4427135],[-80.4765738,43.4426463],[-80.4753757,43.4423775],[-80.4753164,43.4423637],[-80.474771,43.4422425],[-80.4746847,43.4422075],[-80.4746293,43.4421661],[-80.4746058,43.4421442],[-80.4745803,43.4421012],[-80.4745728,43.4420835],[-80.4745629,43.4420161],[-80.4745702,43.4419726],[-80.4745962,43.4419256],[-80.4750762,43.4413585],[-80.4750941,43.441342],[-80.4751585,43.4412823],[-80.4753547,43.4411006],[-80.4756264,43.4408588],[-80.4763439,43.4402205],[-80.4764791,43.4401003],[-80.4765379,43.4400478],[-80.4766736,43.43993],[-80.4767842,43.4398318],[-80.4773998,43.4392851],[-80.4780255,43.4387418],[-80.4780917,43.4386853],[-80.4787127,43.4381442],[-80.4787865,43.4380898],[-80.4788913,43.4380124],[-80.4790064,43.4379299],[-80.4790785,43.4378781],[-80.4792467,43.4377534],[-80.4802363,43.4368749],[-80.4803765,43.4367516],[-80.4807691,43.4364063],[-80.4808077,43.4363658],[-80.4808339,43.4363285],[-80.4808488,43.4362986],[-80.4808596,43.4362716],[-80.480869,43.4362411],[-80.4808792,43.4361928],[-80.4808738,43.436146],[-80.4808692,43.4361106],[-80.4808531,43.4360624],[-80.4808365,43.4360282],[-80.480803,43.4359853],[-80.4807609,43.4359402],[-80.4787976,43.4343154],[-80.4787795,43.4343004],[-80.4786904,43.4342264],[-80.4785932,43.4341427],[-80.4784172,43.4339907],[-80.4776255,43.4333277],[-80.4775211,43.4332364],[-80.4769082,43.4327215],[-80.476509,43.4323727],[-80.4762165,43.4321379],[-80.4757483,43.4317622],[-80.4753201,43.4314413],[-80.4744492,43.4309013],[-80.4740387,43.4306082],[-80.4735727,43.4302076],[-80.4730406,43.4297809],[-80.4729712,43.4297209],[-80.4727375,43.4295191],[-80.4725496,43.4293431],[-80.4722284,43.4289976],[-80.4719192,43.4286477],[-80.4717519,43.428469],[-80.4715785,43.4282968],[-80.4713991,43.4281349],[-80.4712076,43.4279753],[-80.4706446,43.4275065],[-80.4700816,43.4270311],[-80.4696786,43.4266894],[-80.4687846,43.4259489],[-80.468679,43.4258599],[-80.4685964,43.4258002],[-80.4685615,43.4257872],[-80.4684817,43.4257607],[-80.468356,43.4257444],[-80.468255,43.4257499],[-80.4681573,43.4257725],[-80.4678768,43.4258697],[-80.4671485,43.4261222],[-80.4667444,43.4262622],[-80.4665964,43.4263115],[-80.466517,43.4263224],[-80.4664321,43.4263176],[-80.4663468,43.4262966],[-80.4662793,43.4262638],[-80.4662196,43.4262097],[-80.4661828,43.4261539],[-80.4661332,43.4260259],[-80.4660203,43.4257391],[-80.4659465,43.4255893],[-80.4658553,43.4254323],[-80.4657708,43.4253053],[-80.4656226,43.425122],[-80.4654135,43.4249041],[-80.4652355,43.4247495],[-80.4648816,43.4244505],[-80.4647148,43.4243074],[-80.4643875,43.4239848],[-80.4640423,43.4236307],[-80.4638881,43.4234743],[-80.4637539,43.4233461],[-80.4634534,43.4230872],[-80.4628522,43.4225784],[-80.4627728,43.4225112],[-80.4625674,43.4223472],[-80.4623948,43.4222205],[-80.462214,43.4221044],[-80.4621847,43.4220856],[-80.4618288,43.4218966],[-80.4616641,43.4218247],[-80.4614988,43.4217639],[-80.4612827,43.4216865],[-80.4610552,43.4216205],[-80.460781,43.4215576],[-80.4605007,43.4215038],[-80.4599555,43.4213984],[-80.4594041,43.42129],[-80.4593162,43.4212723],[-80.4592329,43.4212554],[-80.4591313,43.4212347],[-80.4588948,43.4211753],[-80.4588076,43.4211473],[-80.4586855,43.421108],[-80.4585796,43.4210667],[-80.4584736,43.4210253],[-80.4582407,43.4209145],[-80.4580277,43.4207921],[-80.4579335,43.4207288],[-80.4577999,43.4206457],[-80.4573027,43.4203362],[-80.4566979,43.4199275],[-80.4565425,43.4197996],[-80.456238,43.4196052],[-80.4561017,43.4195163],[-80.455989,43.4194655],[-80.4559188,43.4194398],[-80.4558275,43.4194185],[-80.4557129,43.4194009],[-80.4555982,43.4193974],[-80.4555035,43.4194085],[-80.4553883,43.4194294],[-80.4553223,43.4194504],[-80.4552724,43.419469],[-80.4547667,43.4196662],[-80.4545581,43.4197436],[-80.4543672,43.419799],[-80.450504,43.4207176],[-80.4494019,43.4209761],[-80.448723,43.4211178],[-80.4460413,43.4215701],[-80.4451575,43.4217383],[-80.4446399,43.4218321],[-80.4440091,43.4219388],[-80.443389,43.4220508],[-80.4433371,43.4220594],[-80.4432346,43.4220767],[-80.4431139,43.4220964],[-80.4429929,43.4221169],[-80.4426291,43.4221804],[-80.4425001,43.4222021],[-80.4424107,43.4222173],[-80.4419648,43.4222923],[-80.4413636,43.4223934]]}}]}