{"type":"FeatureCollection","features":[{"type":"Feature","properties":{"name":"CN Waterloo Spur / WCR to Elmira","route":"elmira","length_m":11612,"source":"OpenStreetMap"},"geometry":{"type":"LineString","coordinates":[[-80.5432199,43.4970566],[-80.54332852499999,43.497233575],[-80.54343714999999,43.49741055],[-80.543545775,43.497587525],[-80.5436544,43.4977645],[-80.5437005,43.4978567],[-80.5437705,43.4979841],[-80.5437968,43.4980383],[-80.5438075,43.4980638],[-80.5438991,43.4982567],[-80.5439362,43.4983347],[-80.54397,43.498391],[-80.544092,43.498592125],[-80.544214,43.49879325],[-80.544336,43.498994374999995],[-80.54445799999999,43.4991955],[-80.54458,43.499396625],[-80.544702,43.49959775],[-80.54482399999999,43.499798874999996],[-80.544946,43.5],[-80.54506672666666,43.50019416],[-80.54518745333333,43.50038832],[-80.54530817999999,43.50058248],[-80.54542890666667,43.50077664],[-80.54554963333334,43.5009708],[-80.54567036,43.50116496],[-80.54579108666667,43.50135912],[-80.54591181333333,43.50155328],[-80.54603254,43.50174744],[-80.54615326666666,43.5019416],[-80.54627399333333,43.50213576],[-80.54639472000001,43.50232992],[-80.54651544666667,43.50252408],[-80.54663617333334,43.50271824],[-80.5467569,43.5029124],[-80.5468128,43.5030022],[-80.5468482,43.503045],[-80.5469002,43.5031264],[-80.54701532857142,43.50330655714286],[-80.54713045714286,43.503486714285714],[-80.54724558571428,43.50366687142857],[-80.54736071428572,43.50384702857143],[-80.54747584285714,43.504027185714286],[-80.54759097142858,43.50420734285714],[-80.5477061,43.5043875],[-80.54783081111111,43.50458737777778],[-80.54795552222222,43.504787255555556],[-80.54808023333334,43.50498713333333],[-80.54820494444445,43.50518701111111],[-80.54832965555555,43.50538688888889],[-80.54845436666666,43.50558676666667],[-80.54857907777777,43.50578664444444],[-80.54870378888889,43.50598652222222],[-80.5488285,43.506186400000004],[-80.54895321111111,43.50638627777778],[-80.54907792222222,43.50658615555555],[-80.54920263333334,43.506786033333334],[-80.54932734444445,43.506985911111116],[-80.54945205555555,43.50718578888889],[-80.54957676666666,43.507385666666664],[-80.54970147777777,43.507585544444446],[-80.54982618888889,43.50778542222223],[-80.5499509,43.5079853],[-80.5500644,43.5081672125],[-80.5501779,43.508349125],[-80.55029139999999,43.5085310375],[-80.55040489999999,43.50871295],[-80.5505184,43.5088948625],[-80.5506319,43.509076775],[-80.5507454,43.5092586875],[-80.5508589,43.5094406],[-80.5509015,43.5095089],[-80.55102339999999,43.50969885],[-80.5511453,43.5098888],[-80.5512672,43.51007875],[-80.5513891,43.5102687],[-80.55148510000001,43.51043235],[-80.5515811,43.510596],[-80.55168780000001,43.51077933333333],[-80.5517945,43.510962666666664],[-80.5519012,43.511146],[-80.55196980000001,43.51129756666666],[-80.5520384,43.511449133333336],[-80.552107,43.5116007],[-80.5521659,43.51176233333334],[-80.5522248,43.511923966666664],[-80.5522837,43.5120856],[-80.55232914999999,43.51221635],[-80.5523746,43.5123471],[-80.5524137,43.5125109],[-80.5524502,43.512720900000005],[-80.5524867,43.5129309],[-80.5525232,43.5131409],[-80.55254049999999,43.51333115],[-80.55255779999999,43.5135214],[-80.5525751,43.513711650000005],[-80.5525924,43.5139019],[-80.552610225,43.514110275],[-80.55262805,43.51431865],[-80.552645875,43.514527025],[-80.5526637,43.5147354],[-80.552681525,43.514943775],[-80.55269935,43.51515215],[-80.552717175,43.515360525],[-80.552735,43.5155689],[-80.552752825,43.515777275],[-80.55277065,43.51598565],[-80.552788475,43.516194025],[-80.5528063,43.5164024],[-80.55282955,43.516600249999996],[-80.5528528,43.5167981],[-80.5528695,43.51699106666667],[-80.5528862,43.517184033333336],[-80.5529029,43.517377],[-80.55292111,43.51758722],[-80.55293932000001,43.51779744],[-80.55295753,43.51800766],[-80.55297574000001,43.51821788],[-80.55299395,43.5184281],[-80.55301216,43.51863832],[-80.55303037,43.51884854],[-80.55304858,43.51905876],[-80.55306679,43.51926898],[-80.553085,43.5194792],[-80.55312302857142,43.51968261428571],[-80.55316105714286,43.51988602857143],[-80.55319908571428,43.52008944285714],[-80.55323711428571,43.520292857142856],[-80.55327514285713,43.52049627142857],[-80.55331317142857,43.520699685714284],[-80.5533512,43.5209031],[-80.55343295357142,43.521115075],[-80.55351470714285,43.52132705],[-80.55359646071427,43.521539024999996],[-80.55367821428571,43.521751],[-80.55375996785713,43.521962975],[-80.55384172142857,43.52217495],[-80.55392347499999,43.522386925],[-80.55400522857143,43.5225989],[-80.55408698214285,43.522810875],[-80.55416873571428,43.52302285],[-80.5542504892857,43.523234825],[-80.55433224285714,43.5234468],[-80.55441399642856,43.523658775],[-80.55449575,43.52387075],[-80.55457750357142,43.524082725],[-80.55465925714284,43.5242947],[-80.55474101071428,43.524506675],[-80.5548227642857,43.524718650000004],[-80.55490451785714,43.524930625],[-80.55498627142856,43.5251426],[-80.555068025,43.525354575],[-80.55514977857142,43.52556655],[-80.55523153214286,43.525778525],[-80.55531328571428,43.5259905],[-80.55539503928571,43.526202475000005],[-80.55547679285714,43.526414450000004],[-80.55555854642857,43.526626425],[-80.5556403,43.5268384],[-80.5556919,43.52696065000001],[-80.5557435,43.5270829],[-80.55581718333335,43.52727241666667],[-80.55589086666667,43.527461933333335],[-80.55596455,43.52765145],[-80.55603823333334,43.527840966666666],[-80.55611191666668,43.52803048333333],[-80.5561856,43.52822],[-80.5562451,43.52837996666666],[-80.5563046,43.528539933333334],[-80.5563641,43.5286999],[-80.55640905,43.52887165],[-80.556454,43.5290434],[-80.5564926,43.52920785],[-80.5565312,43.5293723],[-80.55655663333333,43.52953993333333],[-80.55658206666666,43.529707566666666],[-80.5566075,43.5298752],[-80.556619,43.52999],[-80.5566305,43.5301048],[-80.5566364,43.5303256],[-80.5566342,43.530519399999996],[-80.556632,43.5307132],[-80.5566298,43.530907],[-80.556609475,43.53110225],[-80.55658915000001,43.5312975],[-80.556568825,43.53149275],[-80.5565485,43.531688],[-80.5565248,43.531904375],[-80.5565011,43.532120750000004],[-80.5564774,43.532337125],[-80.5564537,43.5325535],[-80.55643363333334,43.5327425],[-80.55641356666666,43.532931500000004],[-80.5563935,43.5331205],[-80.5563891,43.5331628],[-80.5563689,43.5333556],[-80.55635026,43.53356512],[-80.55633162,43.53377464],[-80.55631298,43.53398416],[-80.55629434,43.53419368],[-80.5562757,43.5344032],[-80.55627175000001,43.53453665],[-80.5562678,43.5346701],[-80.5562704,43.534808850000005],[-80.556273,43.5349476],[-80.55628545,43.535116650000006],[-80.5562979,43.5352857],[-80.556322,43.5354746],[-80.5563495,43.5356551],[-80.5563852,43.5358415],[-80.556404,43.5359156],[-80.55643825,43.53606275],[-80.5564725,43.5362099],[-80.55651965,43.5363647],[-80.5565668,43.5365195],[-80.5566167,43.5366608],[-80.5566666,43.5367893],[-80.5567496,43.5369902],[-80.55681576666667,43.537141633333334],[-80.55688193333333,43.53729306666666],[-80.5569481,43.5374445],[-80.5570192,43.53760735],[-80.5570903,43.5377702],[-80.5571316,43.5378651],[-80.557208925,43.5380429],[-80.55728625,43.5382207],[-80.55736357500001,43.5383985],[-80.5574409,43.5385763],[-80.5575213,43.538768450000006],[-80.5576017,43.5389606],[-80.5576516,43.5390741],[-80.55773574444444,43.53926485555556],[-80.55781988888889,43.53945561111111],[-80.55790403333333,43.539646366666666],[-80.55798817777777,43.539837122222224],[-80.55807232222223,43.540027877777774],[-80.55815646666667,43.54021863333333],[-80.55824061111112,43.54040938888889],[-80.55832475555556,43.54060014444444],[-80.5584089,43.5407909],[-80.5584998,43.5409979],[-80.5585907,43.5412049],[-80.5586816,43.5414119],[-80.5587725,43.5416189],[-80.55886339999999,43.5418259],[-80.5589543,43.5420329],[-80.55904100714285,43.54223365],[-80.55912771428571,43.542434400000005],[-80.55921442142856,43.54263515],[-80.55930112857143,43.5428359],[-80.55938783571429,43.54303665],[-80.55947454285715,43.5432374],[-80.55956125,43.54343815],[-80.55964795714286,43.5436389],[-80.55973466428571,43.54383965],[-80.55982137142857,43.5440404],[-80.55990807857144,43.54424115],[-80.5599947857143,43.544441899999995],[-80.56008149285715,43.54464265],[-80.5601682,43.5448434],[-80.56021715,43.5449547],[-80.5602661,43.545066],[-80.5603523,43.54527046],[-80.5604385,43.54547492],[-80.5605247,43.54567938],[-80.5606109,43.54588384],[-80.5606971,43.5460883],[-80.560752025,43.546291375],[-80.56080695,43.54649445],[-80.560861875,43.546697525],[-80.5609168,43.5469006],[-80.56092994285714,43.5470934],[-80.56094308571429,43.5472862],[-80.56095622857143,43.547479],[-80.56096937142857,43.547671799999996],[-80.56098251428571,43.5478646],[-80.56099565714285,43.5480574],[-80.5610088,43.5482502],[-80.56098211999999,43.54845126],[-80.56095544,43.54865232],[-80.56092876,43.54885338],[-80.56090208,43.54905444],[-80.5608754,43.5492555],[-80.56080914285714,43.54947132857143],[-80.56074288571429,43.549687157142856],[-80.56067662857143,43.54990298571428],[-80.56061037142857,43.55011881428572],[-80.5605441142857,43.550334642857145],[-80.56047785714286,43.55055047142857],[-80.5604116,43.5507663],[-80.56034835454545,43.550975709090906],[-80.5602851090909,43.55118511818182],[-80.56022186363636,43.55139452727273],[-80.56015861818182,43.551603936363634],[-80.56009537272728,43.55181334545455],[-80.56003212727272,43.552022754545455],[-80.55996888181818,43.55223216363637],[-80.55990563636364,43.552441572727275],[-80.5598423909091,43.55265098181818],[-80.55977914545454,43.552860390909096],[-80.5597159,43.5530698],[-80.55965165666667,43.55328412666667],[-80.55958741333333,43.55349845333333],[-80.55952317,43.553712780000005],[-80.55945892666666,43.55392710666667],[-80.55939468333334,43.554141433333335],[-80.55933044,43.55435576],[-80.55926619666667,43.55457008666667],[-80.55920195333333,43.55478441333334],[-80.55913771,43.55499874],[-80.55907346666666,43.55521306666667],[-80.55900922333333,43.55542739333334],[-80.55894497999999,43.555641720000004],[-80.55888073666667,43.55585604666667],[-80.55881649333332,43.556070373333334],[-80.55875225,43.556284700000006],[-80.55868800666667,43.55649902666667],[-80.55862376333333,43.556713353333336],[-80.55855952,43.55692768],[-80.55849527666666,43.557142006666666],[-80.55843103333333,43.55735633333334],[-80.55836679,43.55757066],[-80.55830254666667,43.55778498666667],[-80.55823830333333,43.55799931333333],[-80.55817406,43.558213640000005],[-80.55810981666666,43.55842796666667],[-80.55804557333333,43.558642293333335],[-80.55798132999999,43.55885662],[-80.55791708666666,43.55907094666667],[-80.55785284333332,43.55928527333334],[-80.5577886,43.5594996],[-80.5577435,43.5596399],[-80.557677255,43.55984953],[-80.55761101,43.56005916],[-80.557544765,43.56026879],[-80.55747852,43.56047842],[-80.557412275,43.560688049999996],[-80.55734603,43.56089768],[-80.557279785,43.56110731],[-80.55721354,43.56131694],[-80.55714729500001,43.56152657],[-80.55708105,43.5617362],[-80.557014805,43.56194583],[-80.55694856,43.56215546],[-80.556882315,43.56236509],[-80.55681607,43.56257472],[-80.556749825,43.56278435],[-80.55668358,43.562993979999995],[-80.556617335,43.563203609999995],[-80.55655109,43.563413239999996],[-80.556484845,43.563622869999996],[-80.5564186,43.5638325],[-80.55635379259259,43.564044996296296],[-80.55628898518519,43.56425749259259],[-80.55622417777778,43.56446998888889],[-80.55615937037037,43.56468248518518],[-80.55609456296297,43.56489498148148],[-80.55602975555556,43.56510747777777],[-80.55596494814814,43.56531997407407],[-80.55590014074075,43.565532470370364],[-80.55583533333333,43.565744966666664],[-80.55577052592592,43.56595746296296],[-80.55570571851852,43.566169959259256],[-80.55564091111111,43.566382455555555],[-80.5555761037037,43.56659495185185],[-80.5555112962963,43.56680744814815],[-80.55544648888889,43.56701994444444],[-80.55538168148148,43.56723244074074],[-80.55531687407408,43.56744493703703],[-80.55525206666667,43.56765743333333],[-80.55518725925926,43.56786992962963],[-80.55512245185186,43.56808242592592],[-80.55505764444445,43.56829492222222],[-80.55499283703703,43.568507418518514],[-80.55492802962964,43.568719914814814],[-80.55486322222222,43.568932411111106],[-80.55479841481481,43.569144907407406],[-80.55473360740741,43.5693574037037],[-80.5546688,43.5695699],[-80.55460216428571,43.56978796071429],[-80.55453552857144,43.57000602142857],[-80.55446889285714,43.57022408214286],[-80.55440225714285,43.57044214285714],[-80.55433562142858,43.57066020357143],[-80.55426898571429,43.57087826428571],[-80.55420235,43.571096325],[-80.55413571428572,43.57131438571428],[-80.55406907857143,43.57153244642857],[-80.55400244285714,43.57175050714285],[-80.55393580714286,43.57196856785714],[-80.55386917142857,43.57218662857142],[-80.55380253571428,43.57240468928571],[-80.55373589999999,43.572622749999994],[-80.55366926428572,43.57284081071428],[-80.55360262857143,43.57305887142857],[-80.55353599285714,43.57327693214285],[-80.55346935714286,43.57349499285714],[-80.55340272142857,43.573713053571424],[-80.55333608571428,43.57393111428571],[-80.55326945,43.574149174999995],[-80.55320281428571,43.574367235714284],[-80.55313617857142,43.574585296428566],[-80.55306954285714,43.574803357142855],[-80.55300290714285,43.57502141785714],[-80.55293627142856,43.575239478571426],[-80.55286963571429,43.57545753928571],[-80.552803,43.5756756],[-80.55274166086956,43.57588895652174],[-80.55268032173913,43.57610231304348],[-80.55261898260869,43.57631566956521],[-80.55255764347825,43.57652902608695],[-80.55249630434783,43.57674238260869],[-80.55243496521739,43.57695573913043],[-80.55237362608695,43.577169095652174],[-80.55231228695652,43.577382452173914],[-80.55225094782608,43.57759580869565],[-80.55218960869564,43.57780916521739],[-80.55212826956522,43.57802252173913],[-80.55206693043478,43.57823587826087],[-80.55200559130435,43.57844923478261],[-80.55194425217391,43.57866259130435],[-80.55188291304347,43.578875947826084],[-80.55182157391305,43.579089304347825],[-80.5517602347826,43.579302660869565],[-80.55169889565217,43.579516017391306],[-80.55163755652174,43.57972937391305],[-80.5515762173913,43.57994273043479],[-80.55151487826086,43.58015608695652],[-80.55145353913043,43.58036944347826],[-80.5513922,43.5805828],[-80.55133093333333,43.58078056666667],[-80.55126966666667,43.580978333333334],[-80.5512084,43.5811761],[-80.55114713333333,43.58137386666667],[-80.55108586666667,43.58157163333333],[-80.5510246,43.5817694],[-80.55096333333333,43.581967166666665],[-80.55090206666667,43.58216493333333],[-80.5508408,43.5823627],[-80.5507893,43.582558],[-80.55073780000001,43.5827533],[-80.5506863,43.5829486],[-80.5506348,43.5831439],[-80.5505909,43.583301],[-80.5505569,43.58349246666667],[-80.5505229,43.58368393333333],[-80.5504889,43.5838754],[-80.5504549,43.58406686666667],[-80.5504209,43.58425833333334],[-80.5503869,43.5844498],[-80.55037185,43.58462245],[-80.5503568,43.5847951],[-80.55033955,43.5849953],[-80.5503223,43.5851955],[-80.55031600000001,43.585395033333334],[-80.5503097,43.585594566666664],[-80.5503034,43.5857941],[-80.55031006666667,43.585994166666666],[-80.55031673333333,43.58619423333334],[-80.5503234,43.5863943],[-80.5503403,43.58661133333334],[-80.5503572,43.586828366666666],[-80.5503741,43.5870454],[-80.5504025,43.5872457],[-80.5504229,43.587389099999996],[-80.5504433,43.5875325],[-80.55047834444444,43.58773716666667],[-80.55051338888889,43.58794183333333],[-80.55054843333333,43.5881465],[-80.55058347777778,43.58835116666667],[-80.55061852222222,43.58855583333333],[-80.55065356666667,43.5887605],[-80.55068861111111,43.58896516666667],[-80.55072365555556,43.58916983333333],[-80.5507587,43.5893745],[-80.55079415714286,43.589566528571424],[-80.55082961428572,43.58975855714286],[-80.55086507142857,43.589950585714284],[-80.55090052857143,43.59014261428571],[-80.55093598571429,43.59033464285714],[-80.55097144285715,43.59052667142857],[-80.5510069,43.5907187],[-80.55103965,43.5909079],[-80.5510724,43.5910971],[-80.5510929,43.5912203],[-80.5511134,43.5913435],[-80.55114905555556,43.59155376666667],[-80.55118471111112,43.591764033333334],[-80.55122036666667,43.591974300000004],[-80.55125602222222,43.59218456666667],[-80.55129167777778,43.59239483333334],[-80.55132733333333,43.5926051],[-80.55136298888888,43.59281536666667],[-80.55139864444445,43.59302563333333],[-80.5514343,43.5932359],[-80.5514715,43.5934538],[-80.55149890000001,43.59360585],[-80.5515263,43.5937579],[-80.55155256666667,43.59391316666667],[-80.55157883333334,43.594068433333334],[-80.5516051,43.5942237],[-80.55163375000001,43.5943892],[-80.5516624,43.5945547],[-80.551689,43.59470636666667],[-80.55171560000001,43.59485803333333],[-80.5517422,43.5950097],[-80.55176815,43.5951667],[-80.5517941,43.5953237],[-80.55182606,43.59551474],[-80.55185802,43.59570578],[-80.55188998,43.59589682],[-80.55192194,43.596087860000004],[-80.5519539,43.5962789],[-80.55198766666666,43.59647866666667],[-80.55202143333334,43.59667843333333],[-80.5520552,43.5968782],[-80.55208449999999,43.5970444],[-80.5521138,43.5972106],[-80.5521431,43.5973768],[-80.55217836666667,43.59758143333333],[-80.55221363333332,43.597786066666664],[-80.5522489,43.5979907],[-80.55227815,43.59816005],[-80.5523074,43.5983294]]}}]}